station id,station name,latitude,longitude,zipcode,burrough,city,county,state
3496,1 Ave & E 110 St,40.7923272,-73.9383,10029,Manhattan,New York,New York County,New York
504,1 Ave & E 16 St,40.73221853,-73.98165557,10009,Manhattan,New York,New York County,New York
2003,1 Ave & E 18 St,40.73381219,-73.98054421,10009,Manhattan,New York,New York County,New York
536,1 Ave & E 30 St,40.74144387,-73.97536082,10016,Manhattan,New York,New York County,New York
455,1 Ave & E 44 St,40.75001986,-73.96905301,10017,Manhattan,New York,New York County,New York
3744,1 Ave & E 5 St,40.725864,-73.986389,10009,Manhattan,New York,New York County,New York
3142,1 Ave & E 62 St,40.761227399999996,-73.96094022,10065,Manhattan,New York,New York County,New York
3141,1 Ave & E 68 St,40.76500525,-73.95818491,10065,Manhattan,New York,New York County,New York
3140,1 Ave & E 78 St,40.77140426,-73.9535166,10075,Manhattan,New York,New York County,New York
3312,1 Ave & E 94 St,40.78172120000001,-73.94594000000001,10128,Manhattan,New York,New York County,New York
3386,1 Pl & Clinton St,40.6809591,-73.99905709,11231,Brooklyn,,Kings County,New York
489,10 Ave & W 28 St,40.75066386,-74.00176802,10001,Manhattan,New York,New York County,New York
3441,10 Hudson Yards,40.752957,-74.00264,10001,Manhattan,New York,New York County,New York
3795,10 St & 2 Ave,40.671907,-73.993612,11215,Brooklyn,,Kings County,New York
3317,10 St & 5 Ave,40.6686273,-73.98700053,11215,Brooklyn,,Kings County,New York
3306,10 St & 7 Ave,40.666207799999995,-73.98199886,11215,Brooklyn,,Kings County,New York
458,11 Ave & W 27 St,40.751396,-74.00522600000001,10001,Manhattan,New York,New York County,New York
478,11 Ave & W 41 St,40.76030096,-73.99884222,10036,Manhattan,New York,New York County,New York
530,11 Ave & W 59 St,40.77149671,-73.99046034,10019,Manhattan,New York,New York County,New York
3567,11 St & 35 Ave,40.76274420000001,-73.9391141,11106,Queens,,Queens County,New York
3620,11 St & 43 Ave,40.7519071,-73.94791190000001,11101,Queens,,Queens County,New York
3881,12 Ave & W 125 St,40.818298999999996,-73.96040500000001,10027,Manhattan,New York,New York County,New York
514,12 Ave & W 40 St,40.76087502,-74.00277668,10018,Manhattan,New York,New York County,New York
3322,12 St & 4 Ave,40.668603000000004,-73.99043940000001,11215,Brooklyn,,Kings County,New York
3319,14 St & 5 Ave,40.666287,-73.98895053,11215,Brooklyn,,Kings County,New York
3310,14 St & 7 Ave,40.663779,-73.98396846,11215,Brooklyn,,Kings County,New York
3524,19 St & 24 Ave,40.777455200000006,-73.9225403,11102,Queens,,Queens County,New York
3478,2 Ave & 36 St,40.65708867,-74.00870204,11232,Brooklyn,,Kings County,New York
3425,2 Ave & E 104 St,40.789210499999996,-73.94370784,10029,Manhattan,New York,New York County,New York
3499,2 Ave & E 122 St,40.8006721,-73.9349,10035,Manhattan,New York,New York County,New York
528,2 Ave & E 31 St,40.74290902,-73.97706058,10016,Manhattan,New York,New York County,New York
3725,2 Ave & E 72 St,40.76876203,-73.95840794,10021,Manhattan,New York,New York County,New York
3318,2 Ave & E 96 St,40.7839636,-73.94716729999999,10128,Manhattan,New York,New York County,New York
3338,2 Ave & E 99 St,40.786258600000004,-73.94552579,10029,Manhattan,New York,New York County,New York
3591,21 St & 31 Dr,40.7659,-73.930819,11106,Queens,,Queens County,New York
3564,21 St & 36 Ave,40.760185299999996,-73.9362726,11106,Queens,,Queens County,New York
3559,21 St & 38 Ave,40.7576314,-73.9391224,11101,Queens,,Queens County,New York
3128,21 St & 43 Ave,40.75052534,-73.94594845,11101,Queens,,Queens County,New York
3513,21 St & Hoyt Ave S,40.774645,-73.92370600000001,11102,Queens,,Queens County,New York
3130,21 St & Queens Plaza North,40.75325964,-73.94335788,11101,Queens,,Queens County,New York
3525,23 Ave & 27 St,40.776165,-73.9153175,11105,Queens,,Queens County,New York
3515,24 Ave & 26 St,40.774591,-73.918544,11102,Queens,,Queens County,New York
3523,24 Ave & 29 St,40.7729,-73.91614200000001,11102,Queens,,Queens County,New York
3556,24 St & 41 Ave,40.752708500000004,-73.9397405,11101,Queens,,Queens County,New York
3811,27 Ave & 3 St,40.77485,-73.9342,11102,Queens,,Queens County,New York
3621,27 Ave & 9 St,40.7739825,-73.93091340000001,11102,Queens,,Queens County,New York
3618,27 St & Hunter St,40.7485,-73.941275,11101,Queens,,Queens County,New York
3617,28 Ave & 35 St,40.7671,-73.9169858,11103,Queens,,Queens County,New York
3691,28 Ave & 44 St,40.76408932,-73.91065121,11103,Queens,,Queens County,New York
3563,28 St & 36 Ave,40.757186,-73.93271899999999,11106,Queens,,Queens County,New York
3555,28 St & 41 Ave,40.751047,-73.93796999999999,11101,Queens,,Queens County,New York
3324,3 Ave & 14 St,40.6685455,-73.99333264,11215,Brooklyn,,Kings County,New York
3762,3 Ave & Carroll St,40.677027,-73.9865,11215,Brooklyn,,Kings County,New York
3327,3 Ave & E 100 St,40.787721399999995,-73.94728331,10029,Manhattan,New York,New York County,New York
3551,3 Ave & E 112 St,40.795508,-73.94160600000001,10029,Manhattan,New York,New York County,New York
3134,3 Ave & E 62 St,40.76312584,-73.96526895,10065,Manhattan,New York,New York County,New York
3152,3 Ave & E 71 St,40.76873687,-73.96119945,10021,Manhattan,New York,New York County,New York
3375,3 Ave & E 72 St,40.7699426,-73.96060712,10021,Manhattan,New York,New York County,New York
298,3 Ave & Schermerhorn St,40.68683208,-73.9796772,11217,Brooklyn,,Kings County,New York
3373,3 St & 3 Ave,40.675070500000004,-73.98775226,11215,Brooklyn,,Kings County,New York
3365,3 St & 7 Ave,40.67038370000001,-73.97839676,11215,Brooklyn,,Kings County,New York
3381,3 St & Hoyt St,40.6777287,-73.99364123,11231,Brooklyn,,Kings County,New York
3354,3 St & Prospect Park West,40.668132,-73.97363831,11215,Brooklyn,,Kings County,New York
3612,30 Ave & 21 St,40.77037429999999,-73.9286078,11102,Queens,,Queens County,New York
3607,31 Ave & 14 St,40.7682,-73.9322662,11106,Queens,,Queens County,New York
3603,31 Ave & 30 St,40.7647,-73.9240312,11106,Queens,,Queens County,New York
3602,31 Ave & 34 St,40.763154,-73.920827,11106,Queens,,Queens County,New York
3605,31 Ave & Crescent St,40.765834600000005,-73.9265474,11106,Queens,,Queens County,New York
3662,31 Ave & Steinway St,40.7612939,-73.91691685,11103,Queens,,Queens County,New York
3526,31 St & 23 Ave,40.7747878,-73.91255509999999,11105,Queens,,Queens County,New York
3516,31 St & Astoria Blvd,40.76991760000001,-73.91840570000001,11102,Queens,,Queens County,New York
3593,31 St & Broadway,40.761584,-73.925921,11106,Queens,,Queens County,New York
3517,31 St & Hoyt Ave N,40.771152799999996,-73.9170074,11102,Queens,,Queens County,New York
3721,31 St & Newtown Ave,40.76754878,-73.92093346,11102,Queens,,Queens County,New York
3654,31 St & Northern Blvd,40.75186951,-73.9334929,11101,Queens,,Queens County,New York
3123,31 St & Thomson Ave,40.74469738,-73.93540375,11101,Queens,,Queens County,New York
3586,34 Ave & 13 St,40.763875299999995,-73.9364848,11106,Queens,,Queens County,New York
3577,34 Ave & 21 St,40.762813799999996,-73.9342862,11106,Queens,,Queens County,New York
3572,34 Ave & 38 St,40.756913,-73.921631,11101,Queens,,Queens County,New York
3568,34 St & 35 Ave,40.756933200000006,-73.92622309999999,11106,Queens,,Queens County,New York
3646,35 Ave & 10 St,40.76315482,-73.9398551,11106,Queens,,Queens County,New York
3570,35 Ave & 37 St,40.7557327,-73.92366109999999,11101,Queens,,Queens County,New York
3573,35 St & 34 Ave,40.7580583,-73.92427509999999,11106,Queens,,Queens County,New York
3595,35 St & Broadway,40.760339,-73.9222427,11106,Queens,,Queens County,New York
3565,36 Ave & 10 St,40.7614376,-73.9411265,11106,Queens,,Queens County,New York
3745,36 Ave & 31 St,40.75651273,-73.92957486,11106,Queens,,Queens County,New York
3561,37 Ave & 35 St,40.7531106,-73.9279917,11101,Queens,,Queens County,New York
3522,37 St & 24 Ave,40.7701477,-73.9120938,11105,Queens,,Queens County,New York
3892,38 Ave & 29 St,40.75473,-73.93366999999999,11101,Queens,,Queens County,New York
3477,39 St & 2 Ave,40.65539977,-74.01062787,11232,Brooklyn,,Kings County,New York
3403,4 Ave & 9 St,40.6705135,-73.98876585,11215,Brooklyn,,Kings County,New York
3905,4 Ave & E 12 St,40.732647,-73.99011,10003,Manhattan,New York,New York County,New York
3557,40 Ave & 9 St,40.75742,-73.945133,11101,Queens,,Queens County,New York
3716,40 Ave & Crescent St,40.753599200000004,-73.93795609,11101,Queens,,Queens County,New York
3597,43 St & Broadway,40.7577284,-73.9166368,11103,Queens,,Queens County,New York
3615,44 Dr & 21 St,40.748000000000005,-73.94609270000001,11101,Queens,,Queens County,New York
3126,44 Dr & Jackson Ave,40.74718234,-73.9432635,11101,Queens,,Queens County,New York
3125,45 Rd & 11 St,40.74708586,-73.94977234,11101,Queens,,Queens County,New York
3124,46 Ave & 5 St,40.74731,-73.95451,11101,Queens,,Queens County,New York
3221,47 Ave & 31 St,40.743,-73.93561,11101,Queens,,Queens County,New York
3704,47 Ave & Skillman Ave,40.74375241,-73.94176483,11101,Queens,,Queens County,New York
3647,48 Ave & 30 Pl,40.74128309,-73.93725872,11101,Queens,,Queens County,New York
3122,48 Ave & 5 St,40.74436329,-73.95587325,11101,Queens,,Queens County,New York
3606,49 Ave & 21 St,40.74252,-73.948852,11101,Queens,,Queens County,New York
3368,5 Ave & 3 St,40.672815500000006,-73.98352355,11215,Brooklyn,,Kings County,New York
3367,5 Ave & E 103 St,40.792255299999994,-73.95249933,10029,Manhattan,New York,New York County,New York
3527,5 Ave & E 126 St,40.806979999999996,-73.94174699999999,10035,Manhattan,New York,New York County,New York
474,5 Ave & E 29 St,40.7451677,-73.98683077,10016,Manhattan,New York,New York County,New York
3136,5 Ave & E 63 St,40.766368,-73.971518,10065,Manhattan,New York,New York County,New York
3137,5 Ave & E 73 St,40.77282817,-73.96685276,10021,Manhattan,New York,New York County,New York
3143,5 Ave & E 78 St,40.77632142,-73.96427393,10075,Manhattan,New York,New York County,New York
3282,5 Ave & E 88 St,40.78307,-73.95939,10128,Manhattan,New York,New York County,New York
3292,5 Ave & E 93 St,40.785785100000005,-73.957481,10128,Manhattan,New York,New York County,New York
3608,5 St & 51 Ave,40.7423737,-73.9566,11101,Queens,,Queens County,New York
3405,5 St & 6 Ave,40.670483600000004,-73.98208968,11215,Brooklyn,,Kings County,New York
3692,5 St & Market St,40.69999748,-73.97440128,11205,Brooklyn,,Kings County,New York
3313,6 Ave & 12 St,40.666318100000005,-73.9854617,11215,Brooklyn,,Kings County,New York
3304,6 Ave & 9 St,40.668127,-73.98377641,11215,Brooklyn,,Kings County,New York
3746,6 Ave & Broome St,40.72430832,-74.00473036,10013,Manhattan,New York,New York County,New York
377,6 Ave & Canal St,40.72243797,-74.00566443,10013,Manhattan,New York,New York County,New York
505,6 Ave & W 33 St,40.74901271,-73.98848395,10001,Manhattan,New York,New York County,New York
3799,6 Ave & W 34 St,40.74964,-73.98805,10001,Manhattan,New York,New York County,New York
3297,6 St & 7 Ave,40.668662700000006,-73.97988067,11215,Brooklyn,,Kings County,New York
3724,7 Ave & Central Park South,40.76674056,-73.97906899,10019,Manhattan,New York,New York County,New York
3416,7 Ave & Park Pl,40.67761470000001,-73.97324283,11217,Brooklyn,,Kings County,New York
3399,7 St & 3 Ave,40.67260298,-73.98983002,11215,Brooklyn,,Kings County,New York
3404,7 St & 5 Ave,40.670492200000005,-73.98541675,11215,Brooklyn,,Kings County,New York
3255,8 Ave & W 31 St,40.75058535,-73.99468482,10001,Manhattan,New York,New York County,New York
490,8 Ave & W 33 St,40.751551,-73.993934,10001,Manhattan,New York,New York County,New York
447,8 Ave & W 52 St,40.76370739,-73.9851615,10019,Manhattan,New York,New York County,New York
434,9 Ave & W 18 St,40.74317449,-74.00366443,10011,Manhattan,New York,New York County,New York
509,9 Ave & W 22 St,40.7454973,-74.00197139,10011,Manhattan,New York,New York County,New York
3259,9 Ave & W 28 St,40.74937024,-73.99923384,10001,Manhattan,New York,New York County,New York
479,9 Ave & W 45 St,40.76019252,-73.9912551,10036,Manhattan,New York,New York County,New York
3127,9 St & 44 Rd,40.74966,-73.9521,11101,Queens,,Queens County,New York
3511,Adam Clayton Powell Blvd & W 115 St,40.802535,-73.9532423,10026,Manhattan,New York,New York County,New York
3520,Adam Clayton Powell Blvd & W 118 St,40.804372,-73.951475,10026,Manhattan,New York,New York County,New York
3510,Adam Clayton Powell Blvd & W 123 St,40.8078316,-73.949373,10027,Manhattan,New York,New York County,New York
3629,Adam Clayton Powell Blvd & W 126 St,40.80949535,-73.94776493,10027,Manhattan,New York,New York County,New York
270,Adelphi St & Myrtle Ave,40.69308257,-73.97178913,11205,Brooklyn,,Kings County,New York
3044,Albany Ave & Fulton St,40.6800105,-73.938475,11216,Brooklyn,,Kings County,New York
361,Allen St & Hester St,40.71605866,-73.99190759,10002,Manhattan,New York,New York County,New York
401,Allen St & Rivington St,40.72019576,-73.98997825,10002,Manhattan,New York,New York County,New York
312,Allen St & Stanton St,40.722055,-73.989111,10002,Manhattan,New York,New York County,New York
3542,Amsterdam Ave & W 119 St,40.8086249,-73.9596214,10027,Manhattan,New York,New York County,New York
3541,Amsterdam Ave & W 125 St,40.813358,-73.956461,10027,Manhattan,New York,New York County,New York
3356,Amsterdam Ave & W 66 St,40.7746671,-73.98470567,10023,Manhattan,New York,New York County,New York
3167,Amsterdam Ave & W 73 St,40.77966809,-73.98093045,10023,Manhattan,New York,New York County,New York
3360,Amsterdam Ave & W 79 St,40.7829391,-73.9786517,10024,Manhattan,New York,New York County,New York
3171,Amsterdam Ave & W 82 St,40.78524672,-73.97667321,10024,Manhattan,New York,New York County,New York
3514,Astoria Park S & Shore Blvd,40.7767,-73.927631,11102,Queens,,Queens County,New York
83,Atlantic Ave & Fort Greene Pl,40.68382604,-73.97632328,11217,Brooklyn,,Kings County,New York
398,Atlantic Ave & Furman St,40.69165183,-73.99997859999999,11201,Brooklyn,,Kings County,New York
3733,Avenue C & E 18 St,40.730563000000004,-73.973984,10009,Manhattan,New York,New York County,New York
339,Avenue D & E 12 St,40.72580614,-73.97422494,10009,Manhattan,New York,New York County,New York
302,Avenue D & E 3 St,40.72082834,-73.97793172,10009,Manhattan,New York,New York County,New York
266,Avenue D & E 8 St (home location),40.72368361,-73.97574813,10009,Manhattan,New York,New York County,New York
3417,Baltic St & 5 Ave,40.6795766,-73.97854971,11217,Brooklyn,,Kings County,New York
346,Bank St & Hudson St,40.73652889,-74.00618026,10014,Manhattan,New York,New York County,New York
238,Bank St & Washington St,40.7361967,-74.00859207,10014,Manhattan,New York,New York County,New York
3109,Banker St & Meserole Ave,40.72606,-73.95621,11222,Brooklyn,,Kings County,New York
417,Barclay St & Church St,40.71291224,-74.01020234,10007,Manhattan,New York,New York County,New York
127,Barrow St & Hudson St,40.73172428,-74.00674436,10014,Manhattan,New York,New York County,New York
3908,Battery Pl & Greenwich St,40.70463,-74.01507,10004,Manhattan,New York,New York County,New York
355,Bayard St & Baxter St,40.71602118,-73.99974372,10013,Manhattan,New York,New York County,New York
3452,Bayard St & Leonard St,40.71915572,-73.94885391,11222,Brooklyn,,Kings County,New York
3823,Beaver St & Fayette St,40.700990000000004,-73.93921,11206,Brooklyn,,Kings County,New York
3571,Bedford Ave & Bergen St,40.676368,-73.95291800000001,11216,Brooklyn,,Kings County,New York
3803,Bedford Ave & Montgomery St,40.665816,-73.95693399999999,11225,Brooklyn,,Kings County,New York
3107,Bedford Ave & Nassau Ave,40.72311651,-73.95212324,11222,Brooklyn,,Kings County,New York
443,Bedford Ave & S 9 St,40.70853074,-73.96408963,11249,Brooklyn,,Kings County,New York
3414,Bergen St & Flatbush Ave,40.68094472,-73.97567332,11217,Brooklyn,,Kings County,New York
3409,Bergen St & Smith St,40.686744299999994,-73.99063168,11201,Brooklyn,,Kings County,New York
3558,Bergen St & Vanderbilt Ave,40.6794388,-73.96804379999999,11238,Brooklyn,,Kings County,New York
3339,Berkeley Pl & 6 Ave,40.6765304,-73.97846879,11217,Brooklyn,,Kings County,New York
3346,Berkeley Pl & 7 Ave,40.67514684,-73.97523209,11217,Brooklyn,,Kings County,New York
3092,Berry St & N 8 St,40.7190095,-73.95852515,11249,Brooklyn,,Kings County,New York
356,Bialystoker Pl & Delancey St,40.71622644,-73.98261206,10002,Manhattan,New York,New York County,New York
3071,Boerum St & Broadway,40.70538077,-73.94976519,11206,Brooklyn,,Kings County,New York
3411,Bond St & Bergen St,40.6849668,-73.98620772,11217,Brooklyn,,Kings County,New York
3232,Bond St & Fulton St,40.68962189,-73.98304269,11201,Brooklyn,,Kings County,New York
260,Broad St & Bridge St,40.70365182,-74.01167797,10004,Manhattan,New York,New York County,New York
3589,Broadway & 12 St,40.7668,-73.93477740000002,11106,Queens,,Queens County,New York
304,Broadway & Battery Pl,40.70463334,-74.01361706,10004,Manhattan,New York,New York County,New York
389,Broadway & Berry St,40.71044554,-73.96525063,11249,Brooklyn,,Kings County,New York
285,Broadway & E 14 St,40.73454567,-73.99074142,10003,Manhattan,New York,New York County,New York
402,Broadway & E 22 St,40.740343200000005,-73.98955109,10010,Manhattan,New York,New York County,New York
3825,Broadway & Furman Ave,40.68139,-73.90756,11233,Brooklyn,,Kings County,New York
3831,Broadway & Hancock St,40.68663,-73.9168,11233,Brooklyn,,Kings County,New York
3837,Broadway & Kosciuszko St,40.693290000000005,-73.92851999999999,11221,Brooklyn,,Kings County,New York
3879,Broadway & Madison St,40.68822,-73.91966,11221,Brooklyn,,Kings County,New York
3547,Broadway & Moylan Pl,40.8143256,-73.9590255,10027,Manhattan,New York,New York County,New York
3078,Broadway & Roebling St,40.70924826,-73.96063149,11211,Brooklyn,,Kings County,New York
3545,Broadway & W 122 St,40.8120562,-73.9612547,10027,Manhattan,New York,New York County,New York
3641,Broadway & W 25 St,40.74286877,-73.98918629,10010,Manhattan,New York,New York County,New York
486,Broadway & W 29 St,40.7462009,-73.98855723,10001,Manhattan,New York,New York County,New York
267,Broadway & W 36 St,40.75097711,-73.98765428,10018,Manhattan,New York,New York County,New York
362,Broadway & W 37 St,40.75172632,-73.98753523,10018,Manhattan,New York,New York County,New York
533,Broadway & W 38 St,40.75299641,-73.98721619,10018,Manhattan,New York,New York County,New York
465,Broadway & W 41 St,40.75513557,-73.98658032,10036,Manhattan,New York,New York County,New York
173,Broadway & W 49 St,40.76068327,-73.98452729,10019,Manhattan,New York,New York County,New York
500,Broadway & W 51 St,40.76228826,-73.98336183,10019,Manhattan,New York,New York County,New York
469,Broadway & W 53 St,40.76344058,-73.98268129,10019,Manhattan,New York,New York County,New York
468,Broadway & W 56 St,40.7652654,-73.98192338,10019,Manhattan,New York,New York County,New York
499,Broadway & W 60 St,40.76915505,-73.98191841,10023,Manhattan,New York,New York County,New York
3067,Broadway & Whipple St,40.7016657,-73.9437303,11206,Brooklyn,,Kings County,New York
3782,Brooklyn Bridge Park - Pier 2,40.698458,-73.997178,11201,Brooklyn,,Kings County,New York
427,Bus Slip & State St,40.701907,-74.013942,10004,Manhattan,New York,New York County,New York
3842,Bushwick Ave & Dekalb Ave,40.69502,-73.92825,11221,Brooklyn,,Kings County,New York
3822,Bushwick Ave & Forrest St,40.700759999999995,-73.93641,11206,Brooklyn,,Kings County,New York
3871,Bushwick Ave & Furman Ave,40.682809999999996,-73.90623000000001,11207,Brooklyn,,Kings County,New York
3838,Bushwick Ave & Harman St,40.69356,-73.92524,11221,Brooklyn,,Kings County,New York
3836,Bushwick Ave & Linden St,40.69146,-73.92146,11221,Brooklyn,,Kings County,New York
3764,Bushwick Ave & McKibbin St,40.705517,-73.93936,11206,Brooklyn,,Kings County,New York
3083,Bushwick Ave & Powers St,40.71247661,-73.94100005,11211,Brooklyn,,Kings County,New York
3765,Bushwick Ave & Stagg St,40.709897,-73.94008000000001,11206,Brooklyn,,Kings County,New York
3303,Butler St & Court St,40.6849894,-73.99440329,11231,Brooklyn,,Kings County,New York
3723,Cadman Plaza E & Johnson St,40.69531728,-73.99015725,11201,Brooklyn,,Kings County,New York
321,Cadman Plaza E & Red Cross Pl,40.69991755,-73.98971773,11201,Brooklyn,,Kings County,New York
3818,Calyer St & Jewel St,40.72984,-73.94839,11222,Brooklyn,,Kings County,New York
3049,Cambridge Pl & Gates Ave,40.68488,-73.96304,11238,Brooklyn,,Kings County,New York
307,Canal St & Rutgers St,40.71427487,-73.98990025,10002,Manhattan,New York,New York County,New York
3537,Carlton Ave & Dean St,40.68097410000001,-73.97100970000001,11238,Brooklyn,,Kings County,New York
242,Carlton Ave & Flushing Ave,40.697787,-73.973736,11205,Brooklyn,,Kings County,New York
419,Carlton Ave & Park Ave,40.69580705,-73.97355569,11205,Brooklyn,,Kings County,New York
368,Carmine St & 6 Ave,40.73038599,-74.00214988,10014,Manhattan,New York,New York County,New York
3364,Carroll St & 5 Ave,40.6751622,-73.9814832,11215,Brooklyn,,Kings County,New York
3361,Carroll St & 6 Ave,40.6740886,-73.9787282,11215,Brooklyn,,Kings County,New York
3377,Carroll St & Bond St,40.6786115,-73.99037292,11231,Brooklyn,,Kings County,New York
3389,Carroll St & Columbia St,40.6830456,-74.00348559,11231,Brooklyn,,Kings County,New York
3590,Carroll St & Franklin Ave,40.6679411,-73.9588,11225,Brooklyn,,Kings County,New York
3382,Carroll St & Smith St,40.680611,-73.99475825,11231,Brooklyn,,Kings County,New York
3587,Carroll St & Washington Ave,40.6686744,-73.9618148,11225,Brooklyn,,Kings County,New York
3383,Cathedral Pkwy & Broadway,40.804213,-73.96699104,10025,Manhattan,New York,New York County,New York
2009,Catherine St & Monroe St,40.71117444,-73.99682619,10038,Manhattan,New York,New York County,New York
3847,Cedar St & Evergreen Ave,40.696709999999996,-73.92806999999999,11221,Brooklyn,,Kings County,New York
3761,Cedar St & Myrtle Ave,40.697842,-73.926241,11221,Brooklyn,,Kings County,New York
3613,Center Blvd & 48 Ave,40.745038,-73.957539,11101,Queens,,Queens County,New York
3726,Center Blvd & 51 Ave,40.74336608,-73.95960689,11101,Queens,,Queens County,New York
3864,Central Ave & Covert St,40.68929,-73.90951,11207,Brooklyn,,Kings County,New York
3829,Central Ave & Decatur St,40.6882,-73.90798000000001,11207,Brooklyn,,Kings County,New York
3770,Central Ave & Flushing Ave,40.702831,-73.9333,11206,Brooklyn,,Kings County,New York
3846,Central Ave & Himrod St,40.69676,-73.92302,11221,Brooklyn,,Kings County,New York
3907,Central Ave & Melrose St,40.70112,-73.93039,11206,Brooklyn,,Kings County,New York
3776,Central Ave & Starr Street,40.700003,-73.92834,11221,Brooklyn,,Kings County,New York
3832,Central Ave & Weirfield St,40.69055,-73.91181,11221,Brooklyn,,Kings County,New York
3863,Central Ave & Woodbine St,40.69296,-73.91605,11221,Brooklyn,,Kings County,New York
3374,Central Park North & Adam Clayton Powell Blvd,40.799484,-73.955613,10026,Manhattan,New York,New York County,New York
2006,Central Park S & 6 Ave,40.76590936,-73.97634151,10019,Manhattan,New York,New York County,New York
3295,Central Park W & W 96 St,40.791270000000004,-73.964839,10025,Manhattan,New York,New York County,New York
3320,Central Park West & W 100 St,40.79406661,-73.96286845,10025,Manhattan,New York,New York County,New York
3341,Central Park West & W 102 St,40.795346,-73.96186,10025,Manhattan,New York,New York County,New York
3163,Central Park West & W 68 St,40.7734066,-73.97782542,10023,Manhattan,New York,New York County,New York
3165,Central Park West & W 72 St,40.77579377,-73.97620574,10023,Manhattan,New York,New York County,New York
3160,Central Park West & W 76 St,40.77896784,-73.97374737,10024,Manhattan,New York,New York County,New York
3810,Central Park West & W 82 St,40.782593,-73.971211,10024,Manhattan,New York,New York County,New York
3168,Central Park West & W 85 St,40.78472675,-73.96961715,10024,Manhattan,New York,New York County,New York
387,Centre St & Chambers St,40.71273266,-74.0046073,10007,Manhattan,New York,New York County,New York
3884,Centre St & Seneca Ave,40.699690000000004,-73.9022,11385,Queens,,Queens County,New York
386,Centre St & Worth St,40.71494807,-74.00234482,10013,Manhattan,New York,New York County,New York
332,Cherry St,40.71219906,-73.97948148,10002,Manhattan,New York,New York County,New York
358,Christopher St & Greenwich St,40.73291553,-74.00711384,10014,Manhattan,New York,New York County,New York
391,Clark St & Henry St,40.69760127,-73.99344559,11201,Brooklyn,,Kings County,New York
3562,Classon Ave & St Marks Ave,40.676519799999994,-73.9596082,11238,Brooklyn,,Kings County,New York
420,Clermont Ave & Lafayette Ave,40.68764484,-73.96968902,11238,Brooklyn,,Kings County,New York
421,Clermont Ave & Park Ave,40.69573398,-73.97129668,11205,Brooklyn,,Kings County,New York
151,Cleveland Pl & Spring St,40.72210379,-73.99724901,10012,Manhattan,New York,New York County,New York
3783,Cliff St & Fulton St,40.70838,-74.00495,10038,Manhattan,New York,New York County,New York
343,Clinton Ave & Flushing Ave,40.69794,-73.96986848,11205,Brooklyn,,Kings County,New York
366,Clinton Ave & Myrtle Ave,40.693261,-73.968896,11205,Brooklyn,,Kings County,New York
3396,Clinton St & 4 Place,40.6783563,-74.00014502,11231,Brooklyn,,Kings County,New York
3326,Clinton St & Centre St,40.67434,-74.00194698,11231,Brooklyn,,Kings County,New York
350,Clinton St & Grand St,40.71559509,-73.9870295,10002,Manhattan,New York,New York County,New York
143,Clinton St & Joralemon St,40.69239502,-73.99337909,11201,Brooklyn,,Kings County,New York
3321,Clinton St & Union St,40.683116399999996,-73.99785267,11231,Brooklyn,,Kings County,New York
3348,Coffey St & Conover St,40.677236,-74.015665,11231,Brooklyn,,Kings County,New York
216,Columbia Heights & Cranberry St,40.70037867,-73.99548059,11201,Brooklyn,,Kings County,New York
3422,Columbia St & Degraw St,40.6859296,-74.00242364,11231,Brooklyn,,Kings County,New York
3311,Columbia St & Kane St,40.68763155,-74.0016256,11231,Brooklyn,,Kings County,New York
3333,Columbia St & Lorraine St,40.6747055,-74.00755720000001,11231,Brooklyn,,Kings County,New York
342,Columbia St & Rivington St,40.71739973,-73.98016555,10002,Manhattan,New York,New York County,New York
3394,Columbia St & W 9 St,40.6769993,-74.00647134,11231,Brooklyn,,Kings County,New York
3302,Columbus Ave & W 103 St,40.7969347,-73.96434123,10025,Manhattan,New York,New York County,New York
3164,Columbus Ave & W 72 St,40.7770575,-73.97898475,10023,Manhattan,New York,New York County,New York
3301,Columbus Ave & W 95 St,40.7919557,-73.968087,10025,Manhattan,New York,New York County,New York
3392,Commerce St & Van Brunt St,40.681211700000006,-74.00860912,11231,Brooklyn,,Kings County,New York
278,Concord St & Bridge St,40.69766564,-73.98476437,11201,Brooklyn,,Kings County,New York
3408,Congress St & Clinton St,40.6881529,-73.99520919,11201,Brooklyn,,Kings County,New York
3263,Cooper Square & Astor Pl,40.72951496,-73.9907527,10003,Manhattan,New York,New York County,New York
3397,Court St & Nelson St,40.6763947,-73.99869893,11231,Brooklyn,,Kings County,New York
3402,Court St & State St,40.6902375,-73.99203074,11201,Brooklyn,,Kings County,New York
3614,Crescent St & 30 Ave,40.768692,-73.9249574,11102,Queens,,Queens County,New York
3575,Crescent St & 34 Ave,40.76108,-73.930562,11106,Queens,,Queens County,New York
3566,Crescent St & 35 Ave,40.7596276,-73.93214549999999,11106,Queens,,Queens County,New York
3592,Crescent St & Broadway,40.7633589,-73.92864709999999,11106,Queens,,Queens County,New York
3530,Crescent St & Ditmars Blvd,40.7787185,-73.9145645,11105,Queens,,Queens County,New York
416,Cumberland St & Lafayette Ave,40.68753406,-73.97265183,11238,Brooklyn,,Kings County,New York
3878,Cypress Ave & George St,40.69812,-73.90271,11385,Queens,,Queens County,New York
3895,Cypress Ave & Palmetto St,40.70157341,-73.90876293,11385,Queens,,Queens County,New York
467,Dean St & 4 Ave,40.68312489,-73.97895137,11217,Brooklyn,,Kings County,New York
3673,Dean St & Franklin Ave,40.67759207,-73.95563722,11238,Brooklyn,,Kings County,New York
3410,Dean St & Hoyt St,40.686444200000004,-73.98759104,11217,Brooklyn,,Kings County,New York
3332,Degraw St & Hoyt St,40.68199044,-73.99079025,11217,Brooklyn,,Kings County,New York
3329,Degraw St & Smith St,40.6829151,-73.99318208,11231,Brooklyn,,Kings County,New York
3755,DeKalb Ave & Franklin Ave,40.69064807,-73.95746179,11205,Brooklyn,,Kings County,New York
324,DeKalb Ave & Hudson Ave,40.689888,-73.981013,11201,Brooklyn,,Kings County,New York
241,DeKalb Ave & S Portland Ave,40.68981035,-73.97493121,11217,Brooklyn,,Kings County,New York
258,DeKalb Ave & Vanderbilt Ave,40.68940747,-73.96885458,11205,Brooklyn,,Kings County,New York
3738,Delancey St & Eldridge St,40.719383,-73.991479,10002,Manhattan,New York,New York County,New York
3453,Devoe St & Lorimer St,40.71335226,-73.94910336,11211,Brooklyn,,Kings County,New York
3772,Devoe St & Morgan Ave,40.713811,-73.93515,11211,Brooklyn,,Kings County,New York
3532,Ditmars Blvd & 19 St,40.78145,-73.9183302,11105,Queens,,Queens County,New York
3714,Division Ave & Hooper St,40.70684203,-73.95443540000001,11211,Brooklyn,,Kings County,New York
3075,Division Ave & Marcy Ave,40.70708701,-73.95796783,11211,Brooklyn,,Kings County,New York
3786,Division St & Bowery,40.714193,-73.996732,10002,Manhattan,New York,New York County,New York
296,Division St & Bowery (old),40.71413089,-73.99704679999999,10002,Manhattan,New York,New York County,New York
3787,Dock 72 Way & Market St,40.69985,-73.97140999999999,11205,Brooklyn,,Kings County,New York
3420,Douglass St & 3 Ave,40.6802133,-73.98432695,11217,Brooklyn,,Kings County,New York
3419,Douglass St & 4 Ave,40.67927879999999,-73.98154004,11217,Brooklyn,,Kings County,New York
3102,Driggs Ave & Lorimer St,40.72179134,-73.95041540000001,11222,Brooklyn,,Kings County,New York
3715,Driggs Ave & N 9 St,40.71816969,-73.95520136,11211,Brooklyn,,Kings County,New York
3106,Driggs Ave & N Henry St,40.72325,-73.94308000000001,11222,Brooklyn,,Kings County,New York
276,Duane St & Greenwich St,40.71748752,-74.0104554,10013,Manhattan,New York,New York County,New York
390,Duffield St & Willoughby St,40.69221589,-73.9842844,11201,Brooklyn,,Kings County,New York
3337,Dwight St & Van Dyke St,40.67363551,-74.01195556,11231,Brooklyn,,Kings County,New York
280,E 10 St & 5 Ave,40.73331967,-73.99510132,10003,Manhattan,New York,New York County,New York
445,E 10 St & Avenue A,40.72740794,-73.98142006,10009,Manhattan,New York,New York County,New York
3351,E 102 St & 1 Ave,40.7869946,-73.94164802,10029,Manhattan,New York,New York County,New York
3363,E 102 St & Park Ave,40.7904828,-73.95033068,10029,Manhattan,New York,New York County,New York
3379,E 103 St & Lexington Ave,40.790305100000005,-73.94755757,10029,Manhattan,New York,New York County,New York
3391,E 106 St & 1 Ave,40.7892529,-73.93956237,10029,Manhattan,New York,New York County,New York
3424,E 106 St & Lexington Ave,40.791976,-73.945993,10029,Manhattan,New York,New York County,New York
3387,E 106 St & Madison Ave,40.79343370000001,-73.94945003,10029,Manhattan,New York,New York County,New York
3390,E 109 St & 3 Ave,40.79329668,-73.9432083,10029,Manhattan,New York,New York County,New York
326,E 11 St & 1 Ave,40.72953837,-73.98426726,10003,Manhattan,New York,New York County,New York
237,E 11 St & 2 Ave,40.73047309,-73.98672378,10003,Manhattan,New York,New York County,New York
3718,E 11 St & Avenue B,40.72746421,-73.97950418,10009,Manhattan,New York,New York County,New York
3400,E 110 St & Madison Ave,40.796153499999996,-73.94782145,10029,Manhattan,New York,New York County,New York
3495,E 114 St & 1 Ave,40.79456629999999,-73.9362541,10029,Manhattan,New York,New York County,New York
3494,E 115 St & Lexington Ave,40.797911,-73.9423,10029,Manhattan,New York,New York County,New York
3500,E 115 St & Madison Ave,40.7989445,-73.944846,10029,Manhattan,New York,New York County,New York
3490,E 116 St & 2 Ave,40.796879,-73.93726099999999,10029,Manhattan,New York,New York County,New York
3491,E 118 St & 1 Ave,40.797470000000004,-73.93504,10035,Manhattan,New York,New York County,New York
3493,E 118 St & 3 Ave,40.799139000000004,-73.9389152,10035,Manhattan,New York,New York County,New York
3501,E 118 St & Madison Ave,40.801486600000004,-73.9442507,10035,Manhattan,New York,New York County,New York
3492,E 118 St & Park Ave,40.8005385,-73.9419949,10035,Manhattan,New York,New York County,New York
483,E 12 St & 3 Ave,40.73223272,-73.98889957,10003,Manhattan,New York,New York County,New York
3788,E 12 St & 4 Av,40.732690000000005,-73.98974,10003,Manhattan,New York,New York County,New York
3736,E 12 St & Ave C,40.727243,-73.976831,10009,Manhattan,New York,New York County,New York
3504,E 123 St & Lexington Ave,40.802926299999996,-73.9379,10035,Manhattan,New York,New York County,New York
3622,E 128 St & Madison Ave,40.807559999999995,-73.93918199999999,10035,Manhattan,New York,New York County,New York
3711,E 13 St & Avenue A,40.72966729,-73.98067966,10009,Manhattan,New York,New York County,New York
297,E 15 St & 3 Ave,40.734232,-73.986923,10003,Manhattan,New York,New York County,New York
496,E 16 St & 5 Ave,40.73726186,-73.99238967,10003,Manhattan,New York,New York County,New York
3463,E 16 St & Irving Pl,40.73536706,-73.98797393,10003,Manhattan,New York,New York County,New York
497,E 17 St & Broadway,40.73704984,-73.99009296,10003,Manhattan,New York,New York County,New York
325,E 19 St & 3 Ave,40.73624527,-73.98473765,10003,Manhattan,New York,New York County,New York
403,E 2 St & 2 Ave,40.72502876,-73.99069656,10003,Manhattan,New York,New York County,New York
3656,E 2 St & Avenue A,40.72307749,-73.98583621,10009,Manhattan,New York,New York County,New York
301,E 2 St & Avenue B,40.72217444,-73.98368779,10009,Manhattan,New York,New York County,New York
150,E 2 St & Avenue C,40.720873600000004,-73.98085795,10009,Manhattan,New York,New York County,New York
461,E 20 St & 2 Ave,40.73587678,-73.98205027,10003,Manhattan,New York,New York County,New York
487,E 20 St & FDR Drive,40.73314259,-73.97573881,10009,Manhattan,New York,New York County,New York
503,E 20 St & Park Ave,40.73827428,-73.98751968,10003,Manhattan,New York,New York County,New York
545,E 23 St & 1 Ave,40.736502,-73.97809472,10010,Manhattan,New York,New York County,New York
491,E 24 St & Park Ave S,40.74096374,-73.98602213,10010,Manhattan,New York,New York County,New York
174,E 25 St & 1 Ave,40.7381765,-73.97738662,10010,Manhattan,New York,New York County,New York
507,E 25 St & 2 Ave,40.73912601,-73.97973776,10010,Manhattan,New York,New York County,New York
2012,E 27 St & 1 Ave,40.739445,-73.97680600000001,10016,Manhattan,New York,New York County,New York
546,E 30 St & Park Ave S,40.74444921,-73.98303529,10016,Manhattan,New York,New York County,New York
476,E 31 St & 3 Ave,40.74394314,-73.97966069,10016,Manhattan,New York,New York County,New York
472,E 32 St & Park Ave,40.745712100000006,-73.98194829,10016,Manhattan,New York,New York County,New York
3687,E 33 St & 1 Ave,40.74322681,-73.97449784,10016,Manhattan,New York,New York County,New York
526,E 33 St & 5 Ave,40.74765947,-73.98490707,10016,Manhattan,New York,New York County,New York
518,E 39 St & 2 Ave,40.74780373,-73.97344190000001,10016,Manhattan,New York,New York County,New York
167,E 39 St & 3 Ave,40.7489006,-73.97604882,10016,Manhattan,New York,New York County,New York
439,E 4 St & 2 Ave,40.726280700000004,-73.98978041,10003,Manhattan,New York,New York County,New York
3235,E 41 St & Madison Ave,40.75216528,-73.97992194,10017,Manhattan,New York,New York County,New York
2017,E 43 St & 2 Ave,40.75022392,-73.97121414,10017,Manhattan,New York,New York County,New York
3680,E 43 St & 5 Ave,40.75412081,-73.98025185,10175,Manhattan,New York,New York County,New York
440,E 45 St & 3 Ave,40.75255434,-73.97282625,10017,Manhattan,New York,New York County,New York
516,E 47 St & 1 Ave,40.75206862,-73.96784384,10017,Manhattan,New York,New York County,New York
164,E 47 St & 2 Ave,40.75323098,-73.97032517,10017,Manhattan,New York,New York County,New York
359,E 47 St & Park Ave,40.75510267,-73.97498696,10017,Manhattan,New York,New York County,New York
228,E 48 St & 3 Ave,40.7546011,-73.97187886,10017,Manhattan,New York,New York County,New York
3233,E 48 St & 5 Ave,40.75724568,-73.97805914,10017,Manhattan,New York,New York County,New York
393,E 5 St & Avenue C,40.72299208,-73.97995466,10009,Manhattan,New York,New York County,New York
454,E 51 St & 1 Ave,40.75455731,-73.96592976,10022,Manhattan,New York,New York County,New York
3815,E 51 St & 2 Ave,40.755293,-73.967641,10022,Manhattan,New York,New York County,New York
522,E 51 St & Lexington Ave,40.75714758,-73.97207836,10022,Manhattan,New York,New York County,New York
367,E 53 St & Lexington Ave,40.75828065,-73.97069431,10022,Manhattan,New York,New York County,New York
456,E 53 St & Madison Ave,40.75971079999999,-73.97402311,10022,Manhattan,New York,New York County,New York
385,E 55 St & 2 Ave,40.75797322,-73.96603308,10022,Manhattan,New York,New York County,New York
464,E 56 St & 3 Ave,40.75934501,-73.96759673,10022,Manhattan,New York,New York County,New York
3814,E 56 St & Madison Ave,40.761573,-73.972628,10022,Manhattan,New York,New York County,New York
3734,E 58 St &  1 Ave (NW Corner),40.759125,-73.96265799999999,10022,Manhattan,New York,New York County,New York
3243,E 58 St & 1 Ave (NE Corner),40.75892386,-73.96226227,10022,Manhattan,New York,New York County,New York
305,E 58 St & 3 Ave,40.76095756,-73.96724467,10022,Manhattan,New York,New York County,New York
3457,E 58 St & Madison Ave,40.76302594,-73.97209525,10022,Manhattan,New York,New York County,New York
3132,E 59 St & Madison Ave,40.76350532,-73.97109243,10022,Manhattan,New York,New York County,New York
317,E 6 St & Avenue B,40.72453734,-73.98185424,10009,Manhattan,New York,New York County,New York
411,E 6 St & Avenue D,40.72228087,-73.97668709,10009,Manhattan,New York,New York County,New York
2022,E 60 St & York Ave,40.759107,-73.959223,10022,Manhattan,New York,New York County,New York
3898,E 63 St & 3 Ave,40.763954,-73.9646,10065,Manhattan,New York,New York County,New York
3376,E 65 St & 2 Ave,40.76471852,-73.9622207,10065,Manhattan,New York,New York County,New York
3355,E 66 St & Madison Ave,40.76800889,-73.96845281,10065,Manhattan,New York,New York County,New York
3231,E 67 St & Park Ave,40.767800799999996,-73.96592081,10065,Manhattan,New York,New York County,New York
3131,E 68 St & 3 Ave,40.7671284,-73.96224618,10065,Manhattan,New York,New York County,New York
3359,E 68 St & Madison Ave,40.7691572,-73.96703464,10065,Manhattan,New York,New York County,New York
432,E 7 St & Avenue A,40.72621788,-73.98379855,10009,Manhattan,New York,New York County,New York
3139,E 72 St & Park Ave,40.77118288,-73.96409422,10021,Manhattan,New York,New York County,New York
3156,E 72 St & York Ave,40.76663814,-73.95348296,10021,Manhattan,New York,New York County,New York
3372,E 74 St & 1 Ave,40.7689738,-73.95482273,10021,Manhattan,New York,New York County,New York
3135,E 75 St & 3 Ave,40.77112927,-73.95772297,10021,Manhattan,New York,New York County,New York
3378,E 76 St & Park Ave,40.773763,-73.96222088,10021,Manhattan,New York,New York County,New York
3154,E 77 St & 3 Ave,40.77314236,-73.95856158,10075,Manhattan,New York,New York County,New York
3370,E 78 St & 2 Ave,40.7727966,-73.95577801,10075,Manhattan,New York,New York County,New York
3671,E 81 St & 2 Ave,40.77477945,-73.95427465,10028,Manhattan,New York,New York County,New York
3146,E 81 St & 3 Ave,40.77573034,-73.9567526,10028,Manhattan,New York,New York County,New York
3144,E 81 St & Park Ave,40.77677702,-73.95900970000001,10028,Manhattan,New York,New York County,New York
3151,E 81 St & York Ave,40.7728384,-73.94989233,10028,Manhattan,New York,New York County,New York
3369,E 82 St & East End Ave,40.7724607,-73.9468208,10028,Manhattan,New York,New York County,New York
3148,E 84 St & 1 Ave,40.77565541,-73.95068615,10028,Manhattan,New York,New York County,New York
3145,E 84 St & Park Ave,40.77862688,-73.95772073,10028,Manhattan,New York,New York County,New York
3147,E 85 St & 3 Ave,40.77801203,-73.95407149,10028,Manhattan,New York,New York County,New York
3150,E 85 St & York Ave,40.77536905,-73.94803392,10028,Manhattan,New York,New York County,New York
3288,E 88 St & 1 Ave,40.778301,-73.9488134,10128,Manhattan,New York,New York County,New York
3284,E 88 St & Park Ave,40.7814107,-73.95595908,10128,Manhattan,New York,New York County,New York
3286,E 89 St & 3 Ave,40.7806284,-73.9521667,10128,Manhattan,New York,New York County,New York
3290,E 89 St & York Ave,40.7779453,-73.94604100000001,10128,Manhattan,New York,New York County,New York
394,E 9 St & Avenue C,40.72521311,-73.97768752,10009,Manhattan,New York,New York County,New York
3305,E 91 St & 2 Ave,40.7811223,-73.94965589,10128,Manhattan,New York,New York County,New York
3294,E 91 St & Park Ave,40.7835016,-73.955327,10128,Manhattan,New York,New York County,New York
3296,E 93 St & 2 Ave,40.78245418,-73.94891962,10128,Manhattan,New York,New York County,New York
3325,E 95 St & 3 Ave,40.7849032,-73.950503,10128,Manhattan,New York,New York County,New York
3309,E 97 St & 3 Ave,40.7859201,-73.94860294,10029,Manhattan,New York,New York County,New York
3336,E 97 St & Madison Ave,40.787801,-73.953559,10029,Manhattan,New York,New York County,New York
3299,E 98 St & Park Ave,40.788129999999995,-73.95206,10029,Manhattan,New York,New York County,New York
3157,East End Ave & E 86 St,40.77518615,-73.94446054,10028,Manhattan,New York,New York County,New York
3584,Eastern Pkwy & Franklin Ave,40.670776700000005,-73.9576801,11225,Brooklyn,,Kings County,New York
3583,Eastern Pkwy & Washington Ave,40.6716493,-73.9631145,11238,Brooklyn,,Kings County,New York
3828,Eldert St & Bushwick Ave,40.68652,-73.91320999999999,11207,Brooklyn,,Kings County,New York
354,Emerson Pl & Myrtle Ave,40.69363137,-73.96223558,11205,Brooklyn,,Kings County,New York
3857,Engert Ave & McGuinness Blvd,40.721579999999996,-73.94546,11222,Brooklyn,,Kings County,New York
3821,Evergreen Ave & Noll St,40.70106,-73.93318000000001,11206,Brooklyn,,Kings County,New York
3902,Fairview Ave & Linden St,40.70694,-73.90632,11385,Queens,,Queens County,New York
501,FDR Drive & E 35 St,40.744219,-73.97121214,10016,Manhattan,New York,New York County,New York
3648,Flushing Ave & Vanderbilt Ave,40.69795032,-73.9707756,11205,Brooklyn,,Kings County,New York
3887,Flushing Ave & Woodward Ave,40.71246,-73.91873000000001,11385,Queens,,Queens County,New York
3876,Forest Ave & Summerfield St,40.699220000000004,-73.89795,11385,Queens,,Queens County,New York
531,Forsyth St & Broome St,40.71893904,-73.99266288,10002,Manhattan,New York,New York County,New York
412,Forsyth St & Canal St,40.715815500000005,-73.99422366,10002,Manhattan,New York,New York County,New York
3599,Franklin Ave & Empire Blvd,40.663140000000006,-73.96056949999999,11225,Brooklyn,,Kings County,New York
372,Franklin Ave & Myrtle Ave,40.69454609,-73.95801365,11205,Brooklyn,,Kings County,New York
3569,Franklin Ave & St Marks Ave,40.6758324,-73.95616770000001,11238,Brooklyn,,Kings County,New York
3117,Franklin St & Dupont St,40.735640000000004,-73.95866,11222,Brooklyn,,Kings County,New York
79,Franklin St & W Broadway,40.71911552,-74.00666661,10013,Manhattan,New York,New York County,New York
3553,Frederick Douglass Blvd & W 112 St,40.801694,-73.957145,10026,Manhattan,New York,New York County,New York
3630,Frederick Douglass Blvd & W 115 St,40.8038654,-73.95593079999999,10026,Manhattan,New York,New York County,New York
3534,Frederick Douglass Blvd & W 117 St,40.805159,-73.95469200000001,10026,Manhattan,New York,New York County,New York
3531,Frederick Douglass Blvd & W 129 St,40.8125511,-73.9492286,10027,Manhattan,New York,New York County,New York
418,Front St & Gold St,40.70224,-73.982578,11201,Brooklyn,,Kings County,New York
3804,Front St & Jay St,40.702461,-73.98684200000001,11201,Brooklyn,,Kings County,New York
351,Front St & Maiden Ln,40.70530954,-74.00612572,10038,Manhattan,New York,New York County,New York
2000,Front St & Washington St,40.70255088,-73.98940236,11201,Brooklyn,,Kings County,New York
3855,Frost St & Debevoise Ave,40.71882,-73.93948,11222,Brooklyn,,Kings County,New York
3727,Frost St & Meeker Ave,40.71766197,-73.94880027,11211,Brooklyn,,Kings County,New York
3440,Fulton St & Adams St,40.69241829,-73.98949474,11201,Brooklyn,,Kings County,New York
319,Fulton St & Broadway,40.711065999999995,-74.009447,10007,Manhattan,New York,New York County,New York
397,Fulton St & Clermont Ave,40.68415748,-73.96922273,11238,Brooklyn,,Kings County,New York
3789,Fulton St & Irving Pl,40.68186,-73.95943199999999,11238,Brooklyn,,Kings County,New York
243,Fulton St & Rockwell Pl,40.68841,-73.979458,11217,Brooklyn,,Kings County,New York
3042,Fulton St & Utica Ave,40.6794268,-73.92989109999999,11233,Brooklyn,,Kings County,New York
3637,Fulton St & Waverly Ave,40.68323865,-73.96599591,11238,Brooklyn,,Kings County,New York
316,Fulton St & William St,40.70955958,-74.00653609,10038,Manhattan,New York,New York County,New York
3686,Gansevoort St & Hudson St,40.739448200000005,-74.00507033,10014,Manhattan,New York,New York County,New York
3358,Garfield Pl & 8 Ave,40.671197799999995,-73.97484126,11215,Brooklyn,,Kings County,New York
3758,George St & Wilson Ave,40.702996999999996,-73.92997,11206,Brooklyn,,Kings County,New York
3086,Graham Ave & Conselyea St,40.715143,-73.944507,11211,Brooklyn,,Kings County,New York
3081,Graham Ave & Grand St,40.711863,-73.944024,11211,Brooklyn,,Kings County,New York
3095,Graham Ave & Herbert St,40.71929301,-73.94500379,11222,Brooklyn,,Kings County,New York
3094,Graham Ave & Withers St,40.7169811,-73.94485918,11211,Brooklyn,,Kings County,New York
281,Grand Army Plaza & Central Park S,40.764397100000004,-73.97371465,10019,Manhattan,New York,New York County,New York
3349,Grand Army Plaza & Plaza St West,40.6729679,-73.97087984,11217,Brooklyn,,Kings County,New York
3549,Grand Ave & Bergen St,40.678045000000004,-73.962408,11238,Brooklyn,,Kings County,New York
3435,Grand St & Elizabeth St,40.718821999999996,-73.99596,10013,Manhattan,New York,New York County,New York
471,Grand St & Havemeyer St,40.71286844,-73.95698119,11211,Brooklyn,,Kings County,New York
229,Great Jones St,40.72743423,-73.99379025,10012,Manhattan,New York,New York County,New York
3819,Green St & McGuinness Blvd,40.733959999999996,-73.95204,11222,Brooklyn,,Kings County,New York
3781,Greene Av & Myrtle Av,40.698568,-73.918877,11237,Brooklyn,,Kings County,New York
3910,Greene Ave & Grandview Ave,40.709697,-73.90785600000001,11385,Queens,,Queens County,New York
3055,Greene Ave & Nostrand Ave,40.68833370000001,-73.950916,11216,Brooklyn,,Kings County,New York
3054,Greene Ave & Throop Ave,40.6894932,-73.942061,11221,Brooklyn,,Kings County,New York
3113,Greenpoint Ave & Manhattan Ave,40.730259999999994,-73.95394,11222,Brooklyn,,Kings County,New York
284,Greenwich Ave & 8 Ave,40.73901691,-74.00263761,10014,Manhattan,New York,New York County,New York
383,Greenwich Ave & Charles St,40.735238,-74.000271,10011,Manhattan,New York,New York County,New York
347,Greenwich St & W Houston St,40.728846000000004,-74.00859100000001,10014,Manhattan,New York,New York County,New York
3890,Grove St & Broadway,40.69047,-73.923511,11221,Brooklyn,,Kings County,New York
3827,Halsey St & Broadway,40.68565,-73.91564,11233,Brooklyn,,Kings County,New York
3830,Halsey St & Evergreen Ave,40.68858,-73.91226999999999,11207,Brooklyn,,Kings County,New York
3047,Halsey St & Tompkins Ave,40.682368700000005,-73.944118,11216,Brooklyn,,Kings County,New York
436,Hancock St & Bedford Ave,40.68216564,-73.95399026,11216,Brooklyn,,Kings County,New York
3872,Hancock St & Wyckoff Ave,40.6972,-73.90674,11385,Queens,,Queens County,New York
3429,Hanson Pl & Ashland Pl,40.68506807,-73.9779076,11217,Brooklyn,,Kings County,New York
3883,Harman St & Seneca Ave,40.70577,-73.91292,11385,Queens,,Queens County,New York
3853,Harrison Pl & Porter Ave,40.70686,-73.92851,11237,Brooklyn,,Kings County,New York
249,Harrison St & Hudson St,40.71870987,-74.0090009,10013,Manhattan,New York,New York County,New York
3779,Hart St & Wyckoff Ave,40.704876,-73.919911,11237,Brooklyn,,Kings County,New York
157,Henry St & Atlantic Ave,40.69089272,-73.99612349,11201,Brooklyn,,Kings County,New York
3330,Henry St & Bay St,40.672505799999996,-74.00494695,11231,Brooklyn,,Kings County,New York
3315,Henry St & Degraw St,40.684751399999996,-73.99917254,11231,Brooklyn,,Kings County,New York
502,Henry St & Grand St,40.714211,-73.981095,10002,Manhattan,New York,New York County,New York
3790,Henry St & Middagh St,40.7003,-73.99158100000001,11201,Brooklyn,,Kings County,New York
3395,Henry St & W 9 St,40.6763744,-74.00324957,11231,Brooklyn,,Kings County,New York
406,Hicks St & Montague St,40.69512845,-73.99595065,11201,Brooklyn,,Kings County,New York
3082,Hope St & Union Ave,40.71167351,-73.95141312,11211,Brooklyn,,Kings County,New York
268,Howard St & Centre St,40.71910537,-73.99973337,10013,Manhattan,New York,New York County,New York
146,Hudson St & Reade St,40.71625008,-74.0091059,10013,Manhattan,New York,New York County,New York
3068,Humboldt St & Varet St,40.7031724,-73.940636,11206,Brooklyn,,Kings County,New York
3116,Huron St & Franklin St,40.732659999999996,-73.95826,11222,Brooklyn,,Kings County,New York
3115,India St & Manhattan Ave,40.73232194,-73.9550858,11222,Brooklyn,,Kings County,New York
3469,India St & West St,40.73181402,-73.95995021,11222,Brooklyn,,Kings County,New York
3778,Irving Ave & DeKalb Ave,40.7027,-73.92095,11237,Brooklyn,,Kings County,New York
3834,Irving Ave & Halsey St,40.69467,-73.90663,11237,Brooklyn,,Kings County,New York
3845,Irving Ave & Harman St,40.70108,-73.9179,11237,Brooklyn,,Kings County,New York
3759,Irving Ave & Jefferson St,40.70538,-73.92535,11237,Brooklyn,,Kings County,New York
3891,Irving Ave & Palmetto St,40.698,-73.9127,11237,Brooklyn,,Kings County,New York
3121,Jackson Ave & 46 Rd,40.74524768,-73.94733276,11101,Queens,,Queens County,New York
3456,Jackson St & Leonard St,40.71638032,-73.94821286,11211,Brooklyn,,Kings County,New York
392,Jay St & Tech Pl,40.695065,-73.987167,11201,Brooklyn,,Kings County,New York
3674,Jay St & York St,40.70140317,-73.9867267,11201,Brooklyn,,Kings County,New York
3903,Jefferson Ave & Evergreen Ave,40.689890000000005,-73.91458,11221,Brooklyn,,Kings County,New York
3850,Jefferson St & Cypress Ave,40.709070000000004,-73.92156999999999,11237,Brooklyn,,Kings County,New York
376,John St & William St,40.70862144,-74.00722156,10038,Manhattan,New York,New York County,New York
261,Johnson St & Gold St,40.69474881,-73.98362464,11201,Brooklyn,,Kings County,New York
3308,Kane St & Clinton St,40.686175799999994,-73.99645295,11231,Brooklyn,,Kings County,New York
3016,Kent Ave & N 7 St,40.72036775,-73.96165073,11249,Brooklyn,,Kings County,New York
282,Kent Ave & S 11 St,40.70764494,-73.96841526,11249,Brooklyn,,Kings County,New York
3858,Kent St & McGuinness Blvd,40.73124,-73.95161,11222,Brooklyn,,Kings County,New York
3856,Kingsland Ave & Nassau Ave,40.725770000000004,-73.94173,11222,Brooklyn,,Kings County,New York
3041,Kingston Ave & Herkimer St,40.67890679,-73.94142771,11213,Brooklyn,,Kings County,New York
3865,Knickerbocker Ave & Cooper St,40.69081,-73.90448,11207,Brooklyn,,Kings County,New York
3774,Knickerbocker Ave & George St,40.704425,-73.92836,11237,Brooklyn,,Kings County,New York
3868,Knickerbocker Ave & Halsey St,40.693000000000005,-73.90824,11207,Brooklyn,,Kings County,New York
3835,Knickerbocker Ave & Hancock St,40.69385,-73.90974,11221,Brooklyn,,Kings County,New York
3773,Knickerbocker Ave & Thames St,40.70539,-73.92976,11237,Brooklyn,,Kings County,New York
3056,Kosciuszko St & Nostrand Ave,40.69072549,-73.95133465,11216,Brooklyn,,Kings County,New York
3057,Kosciuszko St & Tompkins Ave,40.69128258,-73.9452416,11221,Brooklyn,,Kings County,New York
364,Lafayette Ave & Classon Ave,40.68900443,-73.96023854,11205,Brooklyn,,Kings County,New York
274,Lafayette Ave & Fort Greene Pl,40.68691865,-73.976682,11217,Brooklyn,,Kings County,New York
399,Lafayette Ave & St James Pl,40.68851534,-73.9647628,11205,Brooklyn,,Kings County,New York
293,Lafayette St & E 8 St,40.73020661,-73.99102628,10003,Manhattan,New York,New York County,New York
250,Lafayette St & Jersey St,40.72456089,-73.99565293,10012,Manhattan,New York,New York County,New York
161,LaGuardia Pl & W 3 St,40.72917025,-73.99810231,10012,Manhattan,New York,New York County,New York
248,Laight St & Hudson St,40.72185379,-74.00771779,10013,Manhattan,New York,New York County,New York
323,Lawrence St & Willoughby St,40.69236178,-73.98631746,11201,Brooklyn,,Kings County,New York
396,Lefferts Pl & Franklin Ave,40.68034242,-73.95576894,11238,Brooklyn,,Kings County,New York
3521,Lenox Ave & W 111 St,40.7987859,-73.9523,10026,Manhattan,New York,New York County,New York
3509,Lenox Ave & W 115 St,40.8011939,-73.9500739,10026,Manhattan,New York,New York County,New York
3628,Lenox Ave & W 117 St,40.8025566,-73.9490782,10026,Manhattan,New York,New York County,New York
3518,Lenox Ave & W 126 St,40.808442,-73.94520870000001,10027,Manhattan,New York,New York County,New York
3529,Lenox Ave & W 130 St,40.8107922,-73.9430681,10027,Manhattan,New York,New York County,New York
3072,Leonard St & Boerum St,40.70583339,-73.94644578,11206,Brooklyn,,Kings County,New York
320,Leonard St & Church St,40.717571,-74.005549,10013,Manhattan,New York,New York County,New York
3454,Leonard St & Maujer St,40.71036854,-73.94705951,11206,Brooklyn,,Kings County,New York
3668,Leonard St & Nassau Ave,40.72395678,-73.94984365,11222,Brooklyn,,Kings County,New York
3043,Lewis Ave & Decatur St,40.6814598,-73.934903,11233,Brooklyn,,Kings County,New York
3058,Lewis Ave & Kosciuszko St,40.69237074,-73.93705428,11221,Brooklyn,,Kings County,New York
3052,Lewis Ave & Madison St,40.686312,-73.935775,11221,Brooklyn,,Kings County,New York
120,Lexington Ave & Classon Ave,40.68676793,-73.95928168,11238,Brooklyn,,Kings County,New York
3502,Lexington Ave & E 111 St,40.79541210000001,-73.9441232,10029,Manhattan,New York,New York County,New York
3506,Lexington Ave & E 120 St,40.8013066,-73.93981670000001,10035,Manhattan,New York,New York County,New York
3505,Lexington Ave & E 127 St,40.805726,-73.936322,10035,Manhattan,New York,New York County,New York
3707,Lexington Ave & E 26 St,40.741459000000006,-73.983293,10016,Manhattan,New York,New York County,New York
540,Lexington Ave & E 29 St,40.74311555,-73.98215353,10016,Manhattan,New York,New York County,New York
3749,Lexington Ave & E 36 St,40.74757396,-73.97880077,10016,Manhattan,New York,New York County,New York
195,Liberty St & Broadway,40.70905623,-74.01043382,10005,Manhattan,New York,New York County,New York
3582,Lincoln Pl & Classon Ave,40.672168299999996,-73.9609,11238,Brooklyn,,Kings County,New York
3862,Linden St & Knickerbocker Ave,40.697140000000005,-73.91566,11237,Brooklyn,,Kings County,New York
257,Lispenard St & Broadway,40.71939226,-74.00247214,10013,Manhattan,New York,New York County,New York
2008,Little West St & 1 Pl,40.70569254,-74.01677685,10004,Manhattan,New York,New York County,New York
3069,Lorimer St & Broadway,40.70411791,-73.94818595,11206,Brooklyn,,Kings County,New York
3859,Lorimer St & Calyer St,40.72795,-73.95414,11222,Brooklyn,,Kings County,New York
128,MacDougal St & Prince St,40.72710258,-74.00297088,10012,Manhattan,New York,New York County,New York
252,MacDougal St & Washington Sq,40.73226398,-73.99852205,10011,Manhattan,New York,New York County,New York
437,Macon St & Nostrand Ave,40.68098339,-73.95004798,11216,Brooklyn,,Kings County,New York
3503,Madison Ave & E 120 St,40.80295,-73.942954,10035,Manhattan,New York,New York County,New York
3362,Madison Ave & E 82 St,40.7781314,-73.96069399,10028,Manhattan,New York,New York County,New York
3345,Madison Ave & E 99 St,40.78948542,-73.95242929,10029,Manhattan,New York,New York County,New York
340,Madison St & Clinton St,40.71269042,-73.98776323,10002,Manhattan,New York,New York County,New York
3873,Madison St & Cypress Ave,40.70068,-73.90742,11385,Queens,,Queens County,New York
3833,Madison St & Evergreen Ave,40.69122,-73.91693000000001,11221,Brooklyn,,Kings County,New York
3877,Madison St & Forest Ave,40.70555,-73.90245,11385,Queens,,Queens County,New York
291,Madison St & Montgomery St,40.713126,-73.984844,10002,Manhattan,New York,New York County,New York
3896,Madison St & Seneca Ave,40.70183,-73.90625,11385,Queens,,Queens County,New York
3909,Madison St & Woodward Ave,40.70408,-73.90408000000001,11385,Queens,,Queens County,New York
264,Maiden Ln & Pearl St,40.70706456,-74.00731853,10038,Manhattan,New York,New York County,New York
3899,Manhattan Av & Leonard St,40.72084,-73.94844,11222,Brooklyn,,Kings County,New York
3046,Marcus Garvey Blvd & Macon St,40.682601,-73.938037,11216,Brooklyn,,Kings County,New York
3053,Marcy Ave & Lafayette Ave,40.6900815,-73.94791500000001,11216,Brooklyn,,Kings County,New York
408,Market St & Cherry St,40.71076228,-73.99400398,10002,Manhattan,New York,New York County,New York
3118,McGuinness Blvd & Eagle St,40.73555,-73.95284000000001,11222,Brooklyn,,Kings County,New York
3771,McKibbin St & Bogart St,40.706237,-73.933871,11206,Brooklyn,,Kings County,New York
3070,McKibbin St & Manhattan Ave,40.70510918,-73.94407279,11206,Brooklyn,,Kings County,New York
3870,Melrose St & Broadway,40.697480999999996,-73.935877,11206,Brooklyn,,Kings County,New York
3841,Menahan St & Central Ave,40.69543,-73.9196,11221,Brooklyn,,Kings County,New York
3886,Menahan St & Onderdonk Ave,40.705529999999996,-73.9096,11385,Queens,,Queens County,New York
3874,Menahan St & Seneca Ave,40.704609999999995,-73.91054,11385,Queens,,Queens County,New York
3861,Menahan St & Wyckoff Ave,40.70113,-73.91422,11237,Brooklyn,,Kings County,New York
3260,Mercer St & Bleecker St,40.72706363,-73.99662137,10012,Manhattan,New York,New York County,New York
303,Mercer St & Spring St,40.72362738,-73.99949601,10012,Manhattan,New York,New York County,New York
3110,Meserole Ave & Manhattan Ave,40.72708584,-73.95299117,11222,Brooklyn,,Kings County,New York
539,Metropolitan Ave & Bedford Ave,40.71534825,-73.96024116,11211,Brooklyn,,Kings County,New York
3087,Metropolitan Ave & Meeker Ave,40.71413311,-73.95234386,11211,Brooklyn,,Kings County,New York
3851,Metropolitan Ave & Stewart Ave,40.714009999999995,-73.92793,11237,Brooklyn,,Kings County,New York
3816,Metropolitan Ave & Vandervoort Ave,40.714290000000005,-73.93323000000001,11211,Brooklyn,,Kings County,New York
3112,Milton St & Franklin St,40.72906,-73.95779,11222,Brooklyn,,Kings County,New York
3826,Moffat St & Bushwick,40.68458,-73.90925,11207,Brooklyn,,Kings County,New York
344,Monroe St & Bedford Ave,40.6851443,-73.95380904,11216,Brooklyn,,Kings County,New York
289,Monroe St & Classon Ave,40.684568299999995,-73.95881081,11238,Brooklyn,,Kings County,New York
3241,Monroe St & Tompkins Ave,40.686203000000006,-73.944694,11216,Brooklyn,,Kings County,New York
3246,Montague St & Clinton St,40.69428114,-73.99230033,11201,Brooklyn,,Kings County,New York
3661,Montgomery St & Franklin Ave,40.66643931,-73.96055639,11225,Brooklyn,,Kings County,New York
3074,Montrose Ave & Bushwick Ave,40.70767788,-73.94016171,11206,Brooklyn,,Kings County,New York
3900,Morgan Ave & Lombardy St,40.72226,-73.93889,11222,Brooklyn,,Kings County,New York
3854,Morgan Ave & Maspeth Ave,40.716657,-73.93637,11211,Brooklyn,,Kings County,New York
3540,Morningside Ave & W 123 St,40.81,-73.9551508,10027,Manhattan,New York,New York County,New York
3543,Morningside Dr & Amsterdam Ave,40.81028506,-73.95736456,10027,Manhattan,New York,New York County,New York
251,Mott St & Prince St,40.72317958,-73.99480012,10012,Manhattan,New York,New York County,New York
3535,Mt Morris Park W & W 120 St,40.804038,-73.945925,10035,Manhattan,New York,New York County,New York
3912,MTL-AOS-5.1,40.7903,-73.9597,10029,Manhattan,New York,New York County,New York
3461,Murray St & Greenwich St,40.71485151,-74.01122332,10007,Manhattan,New York,New York County,New York
309,Murray St & West St,40.7149787,-74.013012,10007,Manhattan,New York,New York County,New York
3843,Myrtle Ave & Grove St,40.69905,-73.91516,11237,Brooklyn,,Kings County,New York
3064,Myrtle Ave & Lewis Ave,40.69681963,-73.93756926,11206,Brooklyn,,Kings County,New York
3844,Myrtle Ave & Linden St,40.69943,-73.91337,11237,Brooklyn,,Kings County,New York
3062,Myrtle Ave & Marcy Ave,40.69539817,-73.94954908,11206,Brooklyn,,Kings County,New York
245,Myrtle Ave & St Edwards St,40.69327018,-73.97703874,11205,Brooklyn,,Kings County,New York
3693,N 11 St & Kent Ave,40.72248189,-73.95921931,11249,Brooklyn,,Kings County,New York
3101,N 12 St & Bedford Ave,40.72079821,-73.95484712,11249,Brooklyn,,Kings County,New York
3105,N 15 St & Wythe Ave,40.724055,-73.955736,11249,Brooklyn,,Kings County,New York
3093,N 6 St & Bedford Ave,40.71745169,-73.95850939,11249,Brooklyn,,Kings County,New York
3100,Nassau Ave & Newell St,40.72481256,-73.94752622,11222,Brooklyn,,Kings County,New York
3108,Nassau Ave & Russell St,40.725570000000005,-73.94434,11222,Brooklyn,,Kings County,New York
144,Nassau St & Navy St,40.69839895,-73.98068914,11201,Brooklyn,,Kings County,New York
3598,Newton Rd & 44 St,40.7595701,-73.91426779999999,11103,Queens,,Queens County,New York
3619,Newtown Ave & 23 St,40.7713615,-73.9246145,11102,Queens,,Queens County,New York
311,Norfolk St & Broome St,40.7172274,-73.98802084,10002,Manhattan,New York,New York County,New York
3882,Norman St & Wyckoff Ave,40.695170000000005,-73.90311,11385,Queens,,Queens County,New York
3664,North Moore St & Greenwich St,40.72019521,-74.01030064,10013,Manhattan,New York,New York County,New York
3063,Nostrand Ave & Myrtle Ave,40.69527008,-73.95238108,11205,Brooklyn,,Kings County,New York
217,Old Fulton St,40.70277159,-73.99383605,11201,Brooklyn,,Kings County,New York
337,Old Slip & Front St,40.703799200000006,-74.00838676,10005,Manhattan,New York,New York County,New York
3897,Onderdonk Ave & Dekalb Ave,40.70863,-73.91497,11385,Queens,,Queens County,New York
3885,Onderdonk Ave & Gates Ave,40.70413,-73.90737,11385,Queens,,Queens County,New York
3546,Pacific St & Classon Ave,40.67919439999999,-73.95879029999999,11238,Brooklyn,,Kings County,New York
3412,Pacific St & Nevins St,40.6853761,-73.98302136,11217,Brooklyn,,Kings County,New York
3507,Park Ave & E 124 St,40.8045555,-73.93968609999999,10035,Manhattan,New York,New York County,New York
3179,Park Ave & Marcus Garvey Blvd,40.698617,-73.941342,11206,Brooklyn,,Kings County,New York
119,Park Ave & St Edwards St,40.69608941,-73.97803415,11205,Brooklyn,,Kings County,New York
3690,Park Pl & Church St,40.71334184,-74.00935516,10007,Manhattan,New York,New York County,New York
3578,Park Pl & Franklin Ave,40.67418060000001,-73.95649470000001,11216,Brooklyn,,Kings County,New York
3576,Park Pl & Vanderbilt Ave,40.6767,-73.969024,11238,Brooklyn,,Kings County,New York
415,Pearl St & Hanover Square,40.7047177,-74.00926027,10004,Manhattan,New York,New York County,New York
3916,Pearl St & Peck Slip,40.708484999999996,-74.002751,10038,Manhattan,New York,New York County,New York
279,Peck Slip & Front St,40.707873,-74.00166999999999,10038,Manhattan,New York,New York County,New York
247,Perry St & Bleecker St,40.73535398,-74.00483091,10014,Manhattan,New York,New York County,New York
3739,Perry St & Greenwich Ave,40.735918,-74.000939,10011,Manhattan,New York,New York County,New York
519,Pershing Square North,40.751872999999996,-73.97770600000001,10168,Manhattan,New York,New York County,New York
517,Pershing Square South,40.751581,-73.97791,10168,Manhattan,New York,New York County,New York
3256,Pier 40 - Hudson River Park,40.72771408,-74.01129574,10014,Manhattan,New York,New York County,New York
3728,Pierrepont St & Monroe Pl,40.69535693,-73.99344027,11201,Brooklyn,,Kings County,New York
295,Pike St & E Broadway,40.71406667,-73.99293911,10002,Manhattan,New York,New York County,New York
331,Pike St & Monroe St,40.71173107,-73.99193043,10002,Manhattan,New York,New York County,New York
3342,Pioneer St & Richards St,40.677774799999995,-74.0094613,11231,Brooklyn,,Kings County,New York
3344,Pioneer St & Van Brunt St,40.679043,-74.011169,11231,Brooklyn,,Kings County,New York
400,Pitt St & Stanton St,40.71926081,-73.98178024,10002,Manhattan,New York,New York County,New York
3418,Plaza St West & Flatbush Ave,40.675020700000005,-73.97111473,11217,Brooklyn,,Kings County,New York
3497,Pleasant Ave & E 116 St,40.794987899999995,-73.9333349,10029,Manhattan,New York,New York County,New York
3498,Pleasant Ave & E 120 St,40.7974772,-73.9311847,10035,Manhattan,New York,New York County,New York
3767,Powers St & Olive St,40.713229999999996,-73.93894,11211,Brooklyn,,Kings County,New York
3388,President St & Henry St,40.6828003,-73.99990419,11231,Brooklyn,,Kings County,New York
3300,Prospect Park West & 8 St,40.66514682,-73.97637606,11215,Brooklyn,,Kings County,New York
3415,Prospect Pl & 6 Ave,40.6793307,-73.97519523,11217,Brooklyn,,Kings County,New York
3574,Prospect Pl & Underhill Ave,40.6769694,-73.96579,11238,Brooklyn,,Kings County,New York
3059,Pulaski St & Marcus Garvey Blvd,40.693398200000004,-73.939877,11221,Brooklyn,,Kings County,New York
3839,Putnam Ave & Knickerbocker Ave,40.69545,-73.91164,11237,Brooklyn,,Kings County,New York
3048,Putnam Ave & Nostrand Ave,40.684020000000004,-73.94977,11216,Brooklyn,,Kings County,New York
3050,Putnam Ave & Throop Ave,40.6851532,-73.94111,11221,Brooklyn,,Kings County,New York
3840,Putnam Ave & Wyckoff Ave,40.69811,-73.90904,11385,Brooklyn,,Kings County,New York
3129,Queens Plaza North & Crescent St,40.75110165,-73.94073717,11101,Queens,,Queens County,New York
2005,Railroad Ave & Kay Ave,40.70531194,-73.97100056,11249,Brooklyn,,Kings County,New York
330,Reade St & Broadway,40.71450451,-74.00562789,10007,Manhattan,New York,New York County,New York
3393,Richards St & Delavan St,40.67943270000001,-74.00785041,11231,Brooklyn,,Kings County,New York
3430,Richardson St & N Henry St,40.71907891,-73.94223690000001,11222,Brooklyn,,Kings County,New York
3173,Riverside Blvd & W 67 St,40.77750703,-73.98888588,10069,Manhattan,New York,New York County,New York
3331,Riverside Dr & W 104 St,40.8013434,-73.97114574,10025,Manhattan,New York,New York County,New York
3166,Riverside Dr & W 72 St,40.78057799,-73.98562431,10023,Manhattan,New York,New York County,New York
3178,Riverside Dr & W 78 St,40.78414472,-73.98362492,10024,Manhattan,New York,New York County,New York
3169,Riverside Dr & W 82 St,40.78720869,-73.98128127,10024,Manhattan,New York,New York County,New York
3437,Riverside Dr & W 91 St,40.79313481,-73.97700369,10024,Manhattan,New York,New York County,New York
473,Rivington St & Chrystie St,40.72110063,-73.99192540000001,10002,Manhattan,New York,New York County,New York
349,Rivington St & Ridge St,40.71850211,-73.98329859,10002,Manhattan,New York,New York County,New York
3893,Rockaway Ave & Bainbridge St,40.68319988,-73.91166642,11207,Brooklyn,,Kings County,New York
3085,Roebling St & N 4 St,40.714690000000004,-73.95739,11211,Brooklyn,,Kings County,New York
3604,Rogers Ave & Sterling St,40.6630619,-73.95387459999999,11225,Brooklyn,,Kings County,New York
481,S 3 St & Bedford Ave,40.71260486,-73.96264403,11249,Brooklyn,,Kings County,New York
3080,S 4 St & Rodney St,40.709340000000005,-73.95608,11211,Brooklyn,,Kings County,New York
460,S 4 St & Wythe Ave,40.71285887,-73.96590294,11249,Brooklyn,,Kings County,New York
532,S 5 Pl & S 5 St,40.710451,-73.960876,11211,Brooklyn,,Kings County,New York
353,S Portland Ave & Hanson Pl,40.68539567,-73.97431458,11217,Brooklyn,,Kings County,New York
3486,Schermerhorn St & Bond St,40.68841743,-73.98451656,11201,Brooklyn,,Kings County,New York
3242,Schermerhorn St & Court St,40.69102926,-73.99183363,11201,Brooklyn,,Kings County,New York
3076,Scholes St & Manhattan Ave,40.70870368,-73.9448625,11206,Brooklyn,,Kings County,New York
3766,Sharon St & Olive St,40.715353,-73.93856,11211,Brooklyn,,Kings County,New York
3352,Sigourney St & Columbia St,40.67267243,-74.00879525,11231,Brooklyn,,Kings County,New York
3384,Smith St & 3 St,40.678724200000005,-73.99599099,11231,Brooklyn,,Kings County,New York
3398,Smith St & 9 St,40.67469570000001,-73.99785768,11231,Brooklyn,,Kings County,New York
3867,Somers St & Broadway,40.67945,-73.90474,11233,Brooklyn,,Kings County,New York
3002,South End Ave & Liberty St,40.711512,-74.01575600000001,10280,Manhattan,New York,New York County,New York
315,South St & Gouverneur Ln,40.70355377,-74.00670227,10005,Manhattan,New York,New York County,New York
259,South St & Whitehall St,40.70122128,-74.01234218,10004,Manhattan,New York,New York County,New York
224,Spruce St & Nassau St,40.71146364,-74.00552427,10038,Manhattan,New York,New York County,New York
308,St James Pl & Oliver St,40.71307916,-73.99851193,10038,Manhattan,New York,New York County,New York
82,St James Pl & Pearl St,40.71117416,-74.00016545,10038,Manhattan,New York,New York County,New York
3580,St Johns Pl & Washington Ave,40.6737236,-73.9631611,11238,Brooklyn,,Kings County,New York
438,St Marks Pl & 1 Ave,40.72779126,-73.98564945,10003,Manhattan,New York,New York County,New York
236,St Marks Pl & 2 Ave,40.7284186,-73.98713956,10003,Manhattan,New York,New York County,New York
3508,St Nicholas Ave & Manhattan Ave,40.809725,-73.953149,10027,Manhattan,New York,New York County,New York
3533,St. Nicholas Ave & W 126 St,40.8114323,-73.95187759999999,10027,Manhattan,New York,New York County,New York
3757,Stagg St & Morgan Ave,40.710681,-73.93372,11206,Brooklyn,,Kings County,New York
3077,Stagg St & Union Ave,40.70877084,-73.95095259,11211,Brooklyn,,Kings County,New York
3901,Stanhope St & Fairview Ave,40.70998,-73.91116,11385,Queens,,Queens County,New York
265,Stanton St & Chrystie St,40.72229346,-73.99147535,10002,Manhattan,New York,New York County,New York
341,Stanton St & Mangin St,40.71782143,-73.97628939,10002,Manhattan,New York,New York County,New York
3737,Stanton St & Norfolk St,40.720746999999996,-73.986274,10002,Manhattan,New York,New York County,New York
310,State St & Smith St,40.68926942,-73.98912867,11201,Brooklyn,,Kings County,New York
3528,Steinway St & 23 Ave,40.771393700000004,-73.9077436,11105,Queens,,Queens County,New York
3616,Steinway St & 28 Ave,40.7656251,-73.9136695,11103,Queens,,Queens County,New York
3875,Stephen St & Seneca Ave,40.6988,-73.9007,11385,Queens,,Queens County,New York
3579,Sterling Pl & Bedford Ave,40.672695000000004,-73.954131,11216,Brooklyn,,Kings County,New York
3601,Sterling St & Bedford Ave,40.6627059,-73.9569115,11225,Brooklyn,,Kings County,New York
3852,Stewart Ave & Johnson Ave,40.708690000000004,-73.92586999999999,11237,Brooklyn,,Kings County,New York
3777,Stockholm St & Wilson Ave,40.699304,-73.92304399999999,11237,Brooklyn,,Kings County,New York
3793,Stuyvesant Walk & 1 Av Loop,40.73233978,-73.97898383,10009,Manhattan,New York,New York County,New York
410,Suffolk St & Stanton St,40.72066442,-73.98517977,10002,Manhattan,New York,New York County,New York
3596,Sullivan Pl & Bedford Ave,40.6642406,-73.9574686,11225,Brooklyn,,Kings County,New York
336,Sullivan St & Washington Sq,40.73047747,-73.99906065,10012,Manhattan,New York,New York County,New York
3848,Suydam St & Broadway,40.695440000000005,-73.93223,11221,Brooklyn,,Kings County,New York
3775,Suydam St & Knickerbocker Ave,40.702013,-73.923769,11237,Brooklyn,,Kings County,New York
3849,Suydam St & St. Nicholas Ave,40.70636,-73.91945,11237,Brooklyn,,Kings County,New York
3061,Throop Ave & Myrtle Ave,40.69622937,-73.94371094,11206,Brooklyn,,Kings County,New York
3066,Tompkins Ave & Hopkins St,40.69957608,-73.94708417,11206,Brooklyn,,Kings County,New York
3581,Underhill Ave & Lincoln Pl,40.674012299999994,-73.9671457,11238,Brooklyn,,Kings County,New York
3544,Underhill Ave & Pacific St,40.6804836,-73.9646795,11238,Brooklyn,,Kings County,New York
3088,Union Ave & Jackson St,40.7160751,-73.95202900000001,11211,Brooklyn,,Kings County,New York
3096,Union Ave & N 12 St,40.71924,-73.95241999999999,11211,Brooklyn,,Kings County,New York
3065,Union Ave & Wallabout St,40.70029511,-73.95032283,11206,Brooklyn,,Kings County,New York
3335,Union St & 4 Ave,40.6772744,-73.98282002,11215,Brooklyn,,Kings County,New York
3585,Union St & Bedford Ave,40.6691783,-73.9554162,11225,Brooklyn,,Kings County,New York
3407,Union St & Nevins St,40.679097999999996,-73.98765475,11215,Brooklyn,,Kings County,New York
3812,University Pl & E 14 St,40.734814,-73.992085,10003,Manhattan,New York,New York County,New York
3244,University Pl & E 8 St,40.73143724,-73.99490342,10003,Manhattan,New York,New York County,New York
3676,Van Brunt St & Van Dyke St,40.67583294,-74.01472628,11231,Brooklyn,,Kings County,New York
3347,Van Brunt St & Wolcott St,40.6773429,-74.01275056,11231,Brooklyn,,Kings County,New York
3869,Van Buren St & Broadway,40.692,-73.92617,11221,Brooklyn,,Kings County,New York
3824,Van Sinderen Ave & Truxton St,40.6786,-73.90369,11233,Brooklyn,,Kings County,New York
3588,Vernon Blvd & 10 St,40.7671863,-73.9373554,11106,Queens,,Queens County,New York
3610,Vernon Blvd & 30 Rd,40.770845,-73.93417099999999,11102,Queens,,Queens County,New York
3609,Vernon Blvd & 31 Ave,40.7692475,-73.93545040000001,11102,Queens,,Queens County,New York
3554,Vernon Blvd & 41 Rd,40.7552433,-73.94856779999999,11101,Queens,,Queens County,New York
3611,Vernon Blvd & 47 Rd,40.7449067,-73.9534573,11101,Queens,,Queens County,New York
3119,Vernon Blvd & 50 Ave,40.74232744,-73.95411749,11101,Queens,,Queens County,New York
3249,Verona Pl & Fulton St,40.68035608,-73.9476791,11216,Brooklyn,,Kings County,New York
327,Vesey Pl & River Terrace,40.715337899999994,-74.01658354,10282,Manhattan,New York,New York County,New York
3350,W 100 St & Broadway,40.797372100000004,-73.97041192,10025,Manhattan,New York,New York County,New York
3328,W 100 St & Manhattan Ave,40.795,-73.9645,10025,Manhattan,New York,New York County,New York
3689,W 104 St & Amsterdam Ave,40.79904139,-73.96649479999999,10025,Manhattan,New York,New York County,New York
3357,W 106 St & Amsterdam Ave,40.80083629999999,-73.96644925,10025,Manhattan,New York,New York County,New York
3323,W 106 St & Central Park West,40.798185600000004,-73.96059090000001,10025,Manhattan,New York,New York County,New York
3343,W 107 St & Columbus Ave,40.7997568,-73.96211287,10025,Manhattan,New York,New York County,New York
254,W 11 St & 6 Ave,40.73532427,-73.99800419,10011,Manhattan,New York,New York County,New York
3538,W 110 St & Amsterdam Ave,40.802692,-73.96295,10025,Manhattan,New York,New York County,New York
3552,W 113 St & Broadway,40.805973,-73.964928,10025,Manhattan,New York,New York County,New York
3539,W 116 St & Amsterdam Ave,40.8067581,-73.9607082,10027,Manhattan,New York,New York County,New York
3536,W 116 St & Broadway,40.8082,-73.9641,10027,Manhattan,New York,New York County,New York
3623,W 120 St & Claremont Ave,40.8109494,-73.9634,10027,Manhattan,New York,New York County,New York
3649,W 129 St & Convent Ave,40.81439444,-73.95324737,10027,Manhattan,New York,New York County,New York
3708,W 13 St & 5 Ave,40.735445,-73.99431,10011,Manhattan,New York,New York County,New York
223,W 13 St & 7 Ave,40.73781509,-73.99994661,10011,Manhattan,New York,New York County,New York
3472,W 15 St & 10 Ave,40.74275383,-74.00747359,10011,Manhattan,New York,New York County,New York
3709,W 15 St & 6 Ave,40.73804614,-73.99642959,10011,Manhattan,New York,New York County,New York
482,W 15 St & 7 Ave,40.73935542,-73.99931783,10011,Manhattan,New York,New York County,New York
212,W 16 St & The High Line,40.74334935,-74.00681753,10011,Manhattan,New York,New York County,New York
116,W 17 St & 8 Ave,40.74177603,-74.00149746,10011,Manhattan,New York,New York County,New York
168,W 18 St & 6 Ave,40.73971301,-73.99456405,10011,Manhattan,New York,New York County,New York
3658,W 18 St & 9 Ave,40.74353373,-74.00367558,10011,Manhattan,New York,New York County,New York
459,W 20 St & 11 Ave,40.746745000000004,-74.007756,10011,Manhattan,New York,New York County,New York
334,W 20 St & 7 Ave,40.74238787,-73.99726235,10011,Manhattan,New York,New York County,New York
470,W 20 St & 8 Ave,40.74345335,-74.00004031,10011,Manhattan,New York,New York County,New York
435,W 21 St & 6 Ave,40.74173969,-73.99415556,10011,Manhattan,New York,New York County,New York
462,W 22 St & 10 Ave,40.74691959,-74.00451887,10011,Manhattan,New York,New York County,New York
453,W 22 St & 8 Ave,40.74475148,-73.99915362,10011,Manhattan,New York,New York County,New York
446,W 24 St & 7 Ave,40.74487634,-73.99529885,10011,Manhattan,New York,New York County,New York
466,W 25 St & 6 Ave,40.74395411,-73.99144871,10010,Manhattan,New York,New York County,New York
388,W 26 St & 10 Ave,40.74971775,-74.00295035,10001,Manhattan,New York,New York County,New York
494,W 26 St & 8 Ave,40.74734825,-73.99723551,10001,Manhattan,New York,New York County,New York
442,W 27 St & 7 Ave,40.746646999999996,-73.993915,10001,Manhattan,New York,New York County,New York
379,W 31 St & 7 Ave,40.749156,-73.9916,10001,Manhattan,New York,New York County,New York
492,W 33 St & 7 Ave,40.75019995,-73.99093085,10001,Manhattan,New York,New York County,New York
525,W 34 St & 11 Ave,40.75594159,-74.0021163,10001,Manhattan,New York,New York County,New York
3712,W 35 St & Dyer Ave,40.75469175,-73.99740189,10001,Manhattan,New York,New York County,New York
448,W 37 St & 10 Ave,40.75660359,-73.9979009,10018,Manhattan,New York,New York County,New York
485,W 37 St & 5 Ave,40.75038009,-73.98338988,10018,Manhattan,New York,New York County,New York
523,W 38 St & 8 Ave,40.75466591,-73.99138152,10018,Manhattan,New York,New York County,New York
380,W 4 St & 7 Ave S,40.73401143,-74.00293877,10014,Manhattan,New York,New York County,New York
3798,W 40 St & 5 Ave,40.752269,-73.982079,10018,Manhattan,New York,New York County,New York
477,W 41 St & 8 Ave,40.75640548,-73.9900262,10036,Manhattan,New York,New York County,New York
3785,W 42 St & 6 Ave,40.75492,-73.98455,10036,Manhattan,New York,New York County,New York
529,W 42 St & 8 Ave,40.75756989999999,-73.99098507,10036,Manhattan,New York,New York County,New York
3236,W 42 St & Dyer Ave,40.75898481,-73.99379969,10036,Manhattan,New York,New York County,New York
515,W 43 St & 10 Ave,40.76009437,-73.99461843,10036,Manhattan,New York,New York County,New York
484,W 44 St & 5 Ave,40.75500254,-73.98014437,10036,Manhattan,New York,New York County,New York
493,W 45 St & 6 Ave,40.7568001,-73.98291153,10036,Manhattan,New York,New York County,New York
2021,W 45 St & 8 Ave,40.75929124,-73.98859651,10036,Manhattan,New York,New York County,New York
508,W 46 St & 11 Ave,40.76341379,-73.99667444,10036,Manhattan,New York,New York County,New York
495,W 47 St & 10 Ave,40.76269882,-73.99301222,10036,Manhattan,New York,New York County,New York
3731,W 47 St & 6 Ave,40.758396999999995,-73.98255,10036,Manhattan,New York,New York County,New York
450,W 49 St & 8 Ave,40.76227205,-73.98788205,10019,Manhattan,New York,New York County,New York
3699,W 50 St & 9 Ave,40.76360468,-73.98917958,10019,Manhattan,New York,New York County,New York
72,W 52 St & 11 Ave,40.76727216,-73.99392888,10019,Manhattan,New York,New York County,New York
520,W 52 St & 5 Ave,40.75992262,-73.97648516,10019,Manhattan,New York,New York County,New York
3443,W 52 St & 6 Ave,40.76132983,-73.97982001,10019,Manhattan,New York,New York County,New York
480,W 53 St & 10 Ave,40.76669671,-73.99061728,10019,Manhattan,New York,New York County,New York
423,W 54 St & 9 Ave,40.76584941,-73.98690506,10019,Manhattan,New York,New York County,New York
3809,W 55 St & 6 Ave,40.763189000000004,-73.978434,10019,Manhattan,New York,New York County,New York
513,W 56 St & 10 Ave,40.768254,-73.988639,10019,Manhattan,New York,New York County,New York
422,W 59 St & 10 Ave,40.770513,-73.988038,10019,Manhattan,New York,New York County,New York
3158,W 63 St & Broadway,40.77163851,-73.98261428,10023,Manhattan,New York,New York County,New York
3697,W 64 St & Thelonious Monk Circle,40.77515953,-73.98918696,10023,Manhattan,New York,New York County,New York
3159,W 67 St & Broadway,40.77492513,-73.98266566,10023,Manhattan,New York,New York County,New York
3175,W 70 St & Amsterdam Ave,40.77748046,-73.98288594,10023,Manhattan,New York,New York County,New York
3172,W 74 St & Columbus Ave,40.7785669,-73.97754961,10023,Manhattan,New York,New York County,New York
3161,W 76 St & Columbus Ave,40.78018397,-73.97728533,10023,Manhattan,New York,New York County,New York
3226,W 82 St & Central Park West,40.78275,-73.97137,10024,Manhattan,New York,New York County,New York
3177,W 84 St & Broadway,40.7867947,-73.977112,10024,Manhattan,New York,New York County,New York
3170,W 84 St & Columbus Ave,40.78499979,-73.97283406,10024,Manhattan,New York,New York County,New York
3285,W 87 St & Amsterdam Ave,40.78839,-73.9747,10024,Manhattan,New York,New York County,New York
3287,W 87 St & West End Ave,40.789621999999994,-73.97757,10024,Manhattan,New York,New York County,New York
3283,W 89 St & Columbus Ave,40.7882213,-73.97041561,10024,Manhattan,New York,New York County,New York
3289,W 90 St & Amsterdam Ave,40.79017948,-73.97288918,10024,Manhattan,New York,New York County,New York
3293,W 92 St & Broadway,40.7921,-73.9739,10025,Manhattan,New York,New York County,New York
3314,W 95 St & Broadway,40.7937704,-73.971888,10025,Manhattan,New York,New York County,New York
3467,W Broadway & Spring St,40.72494672,-74.00165856,10012,Manhattan,New York,New York County,New York
3740,W Broadway & W Houston St,40.726378000000004,-74.000472,10012,Manhattan,New York,New York County,New York
3298,Warren St & Court St,40.686371,-73.99383324,11201,Brooklyn,,Kings County,New York
275,Washington Ave & Greene Ave,40.68650065,-73.96563307,11238,Brooklyn,,Kings County,New York
313,Washington Ave & Park Ave,40.69610226,-73.96751037,11205,Brooklyn,,Kings County,New York
262,Washington Park,40.6917823,-73.97372990000001,11205,Brooklyn,,Kings County,New York
369,Washington Pl & 6 Ave,40.73224119,-74.00026394,10011,Manhattan,New York,New York County,New York
335,Washington Pl & Broadway,40.72903917,-73.99404649,10003,Manhattan,New York,New York County,New York
405,Washington St & Gansevoort St,40.739323,-74.008119,10014,Manhattan,New York,New York County,New York
534,Water - Whitehall Plaza,40.70255065,-74.0127234,10004,Manhattan,New York,New York County,New York
3768,Waterbury St & Stagg St,40.710190000000004,-73.93734,11206,Brooklyn,,Kings County,New York
328,Watts St & Greenwich St,40.72405549,-74.00965965,10013,Manhattan,New York,New York County,New York
3423,West Drive & Prospect Park West,40.66106337,-73.97945255,11215,Brooklyn,,Kings County,New York
3366,West End Ave & W 107 St,40.8021174,-73.96818053,10025,Manhattan,New York,New York County,New York
3307,West End Ave & W 94 St,40.7941654,-73.974124,10025,Manhattan,New York,New York County,New York
426,West St & Chambers St,40.71754834,-74.01322069,10282,Manhattan,New York,New York County,New York
363,West Thames St,40.70834698,-74.01713445,10280,Manhattan,New York,New York County,New York
3769,White St & Johnson Ave,40.707174,-73.93581,11206,Brooklyn,,Kings County,New York
3756,White St & Moore St,40.704508000000004,-73.9351,11206,Brooklyn,,Kings County,New York
360,William St & Pine St,40.70717936,-74.00887308,10005,Manhattan,New York,New York County,New York
244,Willoughby Ave & Hall St,40.69196035,-73.96536851,11205,Brooklyn,,Kings County,New York
3820,Willoughby Ave & Myrtle Ave,40.69757,-73.93098,11221,Brooklyn,,Kings County,New York
3880,Willoughby Ave & Onderdonk Ave,40.7098,-73.91727,11385,Queens,,Queens County,New York
3060,Willoughby Ave & Tompkins Ave,40.69425403,-73.94626915,11206,Brooklyn,,Kings County,New York
373,Willoughby Ave & Walworth St,40.69331716,-73.95381995,11205,Brooklyn,,Kings County,New York
3760,Willoughby Ave & Wyckoff Ave,40.705614000000004,-73.92153,11237,Brooklyn,,Kings County,New York
3917,Willoughby St & Ashland Pl,40.69178,-73.97877,11201,Brooklyn,,Kings County,New York
239,Willoughby St & Fleet St,40.69196566,-73.9813018,11201,Brooklyn,,Kings County,New York
3866,Wilson Ave & Moffat St,40.68906,-73.90505999999999,11207,Brooklyn,,Kings County,New York
3860,Wilson Ave & Troutman St,40.70166,-73.92754000000001,11206,Brooklyn,,Kings County,New York
3817,Withers St & Kingsland Ave,40.717729999999996,-73.94051,11211,Brooklyn,,Kings County,New York
3340,Wolcott St & Dwight St,40.6753274,-74.0100698,11231,Brooklyn,,Kings County,New York
3888,Woodward Ave & Harman St,40.70793,-73.91091999999999,11385,Queens,,Queens County,New York
3763,Wyckoff Av & Jefferson St,40.707165,-73.923711,11237,Brooklyn,,Kings County,New York
3780,Wyckoff Av & Stanhope St,40.703545,-73.917775,11237,Brooklyn,,Kings County,New York
3720,Wyckoff St & Bond St,40.68461654,-73.98721285,11217,Brooklyn,,Kings County,New York
3911,Wyckoff St & Nevins St,40.683426000000004,-73.984275,11217,Brooklyn,,Kings County,New York
2002,Wythe Ave & Metropolitan Ave,40.716887,-73.96319799999999,11249,Brooklyn,,Kings County,New York
3638,Washington St,40.7242941,-74.0354826,07310,,Jersey City,Hudson County,New Jersey
3245,NYCBS DEPOT - DELANCEY,40.71644423,-73.98233056,10002,Manhattan,New York,New York County,New York
3432,Forrest portable kiosk,40.70304842,-73.93200427,11206,Brooklyn,,Kings County,New York
